{"type":"FeatureCollection","village":"BURADA PALEM","features":[{"type":"Feature","geometry":{"type":"Polygon","coordinates":[[[79.476849,15.685854],[79.475757,15.686895],[79.475811,15.686453],[79.475901,15.685939],[79.47563,15.68524],[79.475244,15.68411],[79.47496,15.683349],[79.476221,15.683989],[79.476562,15.685146],[79.476849,15.685854]]]},"properties":{"lp":"70"}},{"type":"Feature","geometry":{"type":"Polygon","coordinates":[[[79.476768,15.683792],[79.476221,15.683989],[79.47496,15.683349],[79.474304,15.683481],[79.474248,15.682976],[79.474691,15.682557],[79.475004,15.681937],[79.476179,15.682287],[79.476337,15.682584],[79.47661,15.683164],[79.476721,15.683659],[79.476768,15.683792]]]},"properties":{"lp":"71"}},{"type":"Feature","geometry":{"type":"Polygon","coordinates":[[[79.476913,15.682025],[79.476785,15.682071],[79.476179,15.682287],[79.475004,15.681937],[79.474586,15.682005],[79.474487,15.682021],[79.474853,15.681215],[79.475315,15.681121],[79.476913,15.682025]]]},"properties":{"lp":"72"}},{"type":"Feature","geometry":{"type":"Polygon","coordinates":[[[79.474691,15.682557],[79.474248,15.682976],[79.47363,15.683251],[79.473192,15.683102],[79.473117,15.683077],[79.473557,15.682373],[79.474487,15.682021],[79.474586,15.682005],[79.475004,15.681937],[79.474691,15.682557]]]},"properties":{"lp":"73"}},{"type":"Feature","geometry":{"type":"Polygon","coordinates":[[[79.473192,15.683102],[79.47363,15.683251],[79.472161,15.683924],[79.471646,15.684177],[79.471409,15.683808],[79.471371,15.683748],[79.472241,15.683473],[79.473117,15.683077],[79.473192,15.683102]]]},"properties":{"lp":"74"}},{"type":"Feature","geometry":{"type":"Polygon","coordinates":[[[79.471409,15.683808],[79.471646,15.684177],[79.469692,15.685361],[79.469593,15.685421],[79.469571,15.685137],[79.469568,15.685101],[79.470399,15.684506],[79.470181,15.684109],[79.471371,15.683748],[79.471409,15.683808]]]},"properties":{"lp":"75"}},{"type":"Feature","geometry":{"type":"Polygon","coordinates":[[[79.472478,15.684738],[79.471316,15.685437],[79.470771,15.68572],[79.470273,15.686053],[79.469789,15.686477],[79.469708,15.686546],[79.469593,15.685421],[79.469692,15.685361],[79.471646,15.684177],[79.472478,15.684738]]]},"properties":{"lp":"76"}},{"type":"Feature","geometry":{"type":"Polygon","coordinates":[[[79.473123,15.684641],[79.47304,15.68448],[79.472478,15.684738],[79.471646,15.684177],[79.472161,15.683924],[79.47363,15.683251],[79.474248,15.682976],[79.474304,15.683481],[79.473781,15.683925],[79.47339,15.684558],[79.473123,15.684641]]]},"properties":{"lp":"77"}},{"type":"Feature","geometry":{"type":"Polygon","coordinates":[[[79.473123,15.684641],[79.473621,15.685683],[79.473957,15.686354],[79.47433,15.686997],[79.474454,15.687266],[79.474078,15.687397],[79.473677,15.687469],[79.473531,15.687078],[79.473412,15.686883],[79.473184,15.68653],[79.472595,15.684998],[79.472478,15.684738],[79.47304,15.68448],[79.473123,15.684641]]]},"properties":{"lp":"78"}},{"type":"Feature","geometry":{"type":"Polygon","coordinates":[[[79.472595,15.684998],[79.473184,15.68653],[79.473412,15.686883],[79.471894,15.68694],[79.471316,15.685437],[79.472478,15.684738],[79.472595,15.684998]]]},"properties":{"lp":"79"}},{"type":"Feature","geometry":{"type":"Polygon","coordinates":[[[79.454335,15.677063],[79.455724,15.67721],[79.45603,15.678301],[79.456189,15.67895],[79.454117,15.679481],[79.454042,15.678998],[79.454079,15.678489],[79.454234,15.678462],[79.454087,15.677016],[79.454335,15.677063]]]},"properties":{"lp":"168"}},{"type":"Feature","geometry":{"type":"Polygon","coordinates":[[[79.455734,15.68222],[79.454352,15.682625],[79.454152,15.681547],[79.454336,15.681395],[79.454293,15.680803],[79.454117,15.679481],[79.456189,15.67895],[79.456926,15.680937],[79.456952,15.68104],[79.455543,15.681453],[79.455734,15.68222]]]},"properties":{"lp":"169"}},{"type":"Feature","geometry":{"type":"Polygon","coordinates":[[[79.454057,15.684677],[79.453582,15.684703],[79.453157,15.683328],[79.45348,15.683259],[79.45357,15.68341],[79.454463,15.6832],[79.454352,15.682625],[79.455734,15.68222],[79.456067,15.683384],[79.45607,15.683428],[79.455062,15.683683],[79.455313,15.684688],[79.454486,15.684541],[79.454057,15.684677]]]},"properties":{"lp":"170"}},{"type":"Feature","geometry":{"type":"Polygon","coordinates":[[[79.454336,15.681395],[79.454152,15.681547],[79.454352,15.682625],[79.454463,15.6832],[79.45357,15.68341],[79.45348,15.683259],[79.453272,15.68178],[79.453271,15.681069],[79.454293,15.680803],[79.454336,15.681395]]]},"properties":{"lp":"171"}},{"type":"Feature","geometry":{"type":"Polygon","coordinates":[[[79.454117,15.679481],[79.454293,15.680803],[79.453271,15.681069],[79.452996,15.680363],[79.45306,15.680325],[79.452923,15.679884],[79.45292,15.679399],[79.452927,15.679197],[79.454042,15.678998],[79.454117,15.679481]]]},"properties":{"lp":"172"}},{"type":"Feature","geometry":{"type":"Polygon","coordinates":[[[79.452904,15.676798],[79.45334,15.676853],[79.454087,15.677016],[79.454234,15.678462],[79.454079,15.678489],[79.454042,15.678998],[79.452927,15.679197],[79.452608,15.678005],[79.452483,15.676992],[79.452442,15.676663],[79.452904,15.676798]]]},"properties":{"lp":"173"}},{"type":"Feature","geometry":{"type":"Polygon","coordinates":[[[79.452888,15.675273],[79.453314,15.676764],[79.45334,15.676853],[79.452904,15.676798],[79.452442,15.676663],[79.451855,15.675579],[79.451686,15.674799],[79.451624,15.674646],[79.451435,15.673893],[79.452391,15.673587],[79.452888,15.675273]]]},"properties":{"lp":"174"}},{"type":"Feature","geometry":{"type":"Polygon","coordinates":[[[79.454475,15.675644],[79.454465,15.676606],[79.454335,15.677063],[79.454087,15.677016],[79.45334,15.676853],[79.453314,15.676764],[79.452888,15.675273],[79.454375,15.674857],[79.454475,15.675644]]]},"properties":{"lp":"175"}},{"type":"Feature","geometry":{"type":"Polygon","coordinates":[[[79.454349,15.674727],[79.454375,15.674857],[79.452888,15.675273],[79.452391,15.673587],[79.452244,15.67296],[79.452745,15.672787],[79.454028,15.672384],[79.454349,15.674727]]]},"properties":{"lp":"176"}},{"type":"Feature","geometry":{"type":"Polygon","coordinates":[[[79.454028,15.672384],[79.452745,15.672787],[79.452244,15.67296],[79.452391,15.673587],[79.451435,15.673893],[79.451392,15.673725],[79.451342,15.673547],[79.451326,15.673299],[79.451156,15.672838],[79.451327,15.672759],[79.451536,15.672715],[79.451735,15.67262],[79.451833,15.672407],[79.451841,15.672405],[79.453945,15.671762],[79.454028,15.672384]]]},"properties":{"lp":"177"}},{"type":"Feature","geometry":{"type":"Polygon","coordinates":[[[79.473098,15.695754],[79.47267,15.696695],[79.471203,15.69718],[79.47112,15.697208],[79.470598,15.695947],[79.470671,15.695922],[79.471486,15.695648],[79.472818,15.695236],[79.473098,15.695754]]]},"properties":{"lp":"57"}},{"type":"Feature","geometry":{"type":"Polygon","coordinates":[[[79.472818,15.695236],[79.471486,15.695648],[79.470671,15.695922],[79.470598,15.695947],[79.470054,15.694674],[79.470143,15.69464],[79.4707,15.694432],[79.47081,15.694725],[79.471659,15.694443],[79.472518,15.694183],[79.472818,15.695236]]]},"properties":{"lp":"58"}},{"type":"Feature","geometry":{"type":"Polygon","coordinates":[[[79.474321,15.688053],[79.473269,15.688403],[79.472771,15.688538],[79.47253,15.688037],[79.472286,15.687599],[79.472121,15.687351],[79.471894,15.68694],[79.473412,15.686883],[79.473531,15.687078],[79.473677,15.687469],[79.474078,15.687397],[79.474321,15.688053]]]},"properties":{"lp":"80"}},{"type":"Feature","geometry":{"type":"Polygon","coordinates":[[[79.472771,15.688538],[79.472112,15.688757],[79.471762,15.687913],[79.471268,15.686934],[79.470771,15.68572],[79.471316,15.685437],[79.471894,15.68694],[79.472121,15.687351],[79.472286,15.687599],[79.47253,15.688037],[79.472771,15.688538]]]},"properties":{"lp":"81"}},{"type":"Feature","geometry":{"type":"Polygon","coordinates":[[[79.471268,15.686934],[79.471762,15.687913],[79.472112,15.688757],[79.471919,15.688823],[79.471535,15.688969],[79.471005,15.687721],[79.470631,15.686947],[79.470273,15.686053],[79.470771,15.68572],[79.471268,15.686934]]]},"properties":{"lp":"82"}},{"type":"Feature","geometry":{"type":"Polygon","coordinates":[[[79.470631,15.686947],[79.471005,15.687721],[79.471535,15.688969],[79.470956,15.689195],[79.470872,15.689228],[79.470492,15.688363],[79.470205,15.687711],[79.469992,15.687162],[79.469708,15.686546],[79.469789,15.686477],[79.470273,15.686053],[79.470631,15.686947]]]},"properties":{"lp":"83"}},{"type":"Feature","geometry":{"type":"Polygon","coordinates":[[[79.457737,15.686629],[79.457367,15.686752],[79.456581,15.687117],[79.456338,15.686239],[79.458401,15.685519],[79.458454,15.685623],[79.459107,15.685414],[79.459485,15.686658],[79.458905,15.686802],[79.458723,15.686274],[79.457737,15.686629]]]},"properties":{"lp":"109"}},{"type":"Feature","geometry":{"type":"Polygon","coordinates":[[[79.456338,15.686239],[79.456061,15.685471],[79.455898,15.684829],[79.45758,15.684733],[79.45818,15.684699],[79.459007,15.684944],[79.459031,15.685055],[79.459107,15.685414],[79.458454,15.685623],[79.458401,15.685519],[79.456338,15.686239]]]},"properties":{"lp":"110"}},{"type":"Feature","geometry":{"type":"Polygon","coordinates":[[[79.459151,15.684991],[79.460174,15.685082],[79.461179,15.685177],[79.461897,15.685262],[79.461954,15.685268],[79.46198,15.685365],[79.462129,15.685931],[79.460975,15.686242],[79.459485,15.686658],[79.459107,15.685414],[79.459031,15.685055],[79.459007,15.684944],[79.459151,15.684991]]]},"properties":{"lp":"111"}},{"type":"Feature","geometry":{"type":"Polygon","coordinates":[[[79.46213,15.686006],[79.462318,15.686758],[79.462349,15.686891],[79.461284,15.687202],[79.460975,15.686242],[79.462129,15.685931],[79.46213,15.686006]]]},"properties":{"lp":"112"}},{"type":"Feature","geometry":{"type":"Polygon","coordinates":[[[79.464433,15.685644],[79.464452,15.68572],[79.464523,15.686003],[79.46303,15.686495],[79.462318,15.686758],[79.46213,15.686006],[79.462129,15.685931],[79.46198,15.685365],[79.461954,15.685268],[79.464433,15.685644]]]},"properties":{"lp":"113"}},{"type":"Feature","geometry":{"type":"Polygon","coordinates":[[[79.464523,15.686003],[79.465073,15.685963],[79.465211,15.686567],[79.465254,15.686674],[79.465416,15.686985],[79.464285,15.687411],[79.462742,15.68801],[79.462705,15.68793],[79.462349,15.686891],[79.462318,15.686758],[79.46303,15.686495],[79.464523,15.686003]]]},"properties":{"lp":"114"}},{"type":"Feature","geometry":{"type":"Polygon","coordinates":[[[79.465254,15.689291],[79.463511,15.689836],[79.463456,15.689523],[79.463095,15.688839],[79.462742,15.68801],[79.464285,15.687411],[79.465254,15.689291]]]},"properties":{"lp":"115"}},{"type":"Feature","geometry":{"type":"Polygon","coordinates":[[[79.460155,15.672281],[79.459467,15.672508],[79.459552,15.672789],[79.459017,15.673007],[79.458926,15.672823],[79.458821,15.672811],[79.458364,15.671342],[79.458254,15.670975],[79.458575,15.670891],[79.458778,15.67082],[79.458757,15.670749],[79.458996,15.670674],[79.459524,15.670525],[79.460155,15.672281]]]},"properties":{"lp":"213"}},{"type":"Feature","geometry":{"type":"Polygon","coordinates":[[[79.460778,15.672143],[79.460721,15.672004],[79.460406,15.672123],[79.460413,15.672176],[79.460155,15.672281],[79.459524,15.670525],[79.458996,15.670674],[79.458888,15.670194],[79.460159,15.669851],[79.460465,15.669645],[79.4607,15.670015],[79.461295,15.669809],[79.461499,15.670431],[79.461224,15.670624],[79.461312,15.670832],[79.460538,15.671085],[79.460908,15.672101],[79.460778,15.672143]]]},"properties":{"lp":"214"}},{"type":"Feature","geometry":{"type":"Polygon","coordinates":[[[79.462993,15.671231],[79.462755,15.670861],[79.46162,15.670363],[79.461499,15.670431],[79.461295,15.669809],[79.4607,15.670015],[79.460465,15.669645],[79.460159,15.669851],[79.458888,15.670194],[79.458996,15.670674],[79.458757,15.670749],[79.458778,15.67082],[79.458575,15.670891],[79.458488,15.670399],[79.458893,15.669545],[79.459848,15.66954],[79.461543,15.668997],[79.461759,15.66876],[79.462036,15.668667],[79.462058,15.668735],[79.462615,15.668444],[79.463619,15.669034],[79.464771,15.669422],[79.465313,15.66996],[79.465847,15.670522],[79.46459,15.671067],[79.464522,15.670664],[79.462993,15.671231]]]},"properties":{"lp":"215"}},{"type":"Feature","geometry":{"type":"Polygon","coordinates":[[[79.461759,15.66876],[79.461543,15.668997],[79.459848,15.66954],[79.459358,15.66808],[79.460246,15.667904],[79.460339,15.668008],[79.461837,15.667557],[79.462363,15.667695],[79.462615,15.668444],[79.462058,15.668735],[79.462036,15.668667],[79.461759,15.66876]]]},"properties":{"lp":"216"}},{"type":"Feature","geometry":{"type":"Polygon","coordinates":[[[79.458047,15.668225],[79.457948,15.668083],[79.457739,15.667355],[79.457816,15.667162],[79.457818,15.667079],[79.457986,15.66695],[79.458609,15.66653],[79.458611,15.666432],[79.459156,15.666203],[79.459625,15.666993],[79.45991,15.666933],[79.460246,15.667904],[79.459358,15.66808],[79.459255,15.667858],[79.458047,15.668225]]]},"properties":{"lp":"217"}},{"type":"Feature","geometry":{"type":"Polygon","coordinates":[[[79.461837,15.667557],[79.460339,15.668008],[79.460246,15.667904],[79.45991,15.666933],[79.460335,15.666825],[79.460961,15.666762],[79.461248,15.667362],[79.461719,15.667296],[79.461837,15.667557]]]},"properties":{"lp":"218"}},{"type":"Feature","geometry":{"type":"Polygon","coordinates":[[[79.455982,15.674553],[79.455722,15.674647],[79.455896,15.67526],[79.454475,15.675644],[79.454375,15.674857],[79.454349,15.674727],[79.455039,15.674489],[79.455825,15.674242],[79.455982,15.674553]]]},"properties":{"lp":"191"}},{"type":"Feature","geometry":{"type":"Polygon","coordinates":[[[79.456138,15.676226],[79.456401,15.677203],[79.455724,15.67721],[79.454335,15.677063],[79.454465,15.676606],[79.454475,15.675644],[79.455896,15.67526],[79.456138,15.676226]]]},"properties":{"lp":"192"}},{"type":"Feature","geometry":{"type":"Polygon","coordinates":[[[79.459168,15.677327],[79.459156,15.677355],[79.459139,15.677393],[79.457684,15.677189],[79.456401,15.677203],[79.456138,15.676226],[79.458175,15.675688],[79.458317,15.675889],[79.459168,15.677327]]]},"properties":{"lp":"193"}},{"type":"Feature","geometry":{"type":"Polygon","coordinates":[[[79.460214,15.677171],[79.459168,15.677327],[79.458317,15.675889],[79.459539,15.675462],[79.45967,15.675726],[79.459801,15.676007],[79.460214,15.677171]]]},"properties":{"lp":"194"}},{"type":"Feature","geometry":{"type":"Polygon","coordinates":[[[79.461787,15.677339],[79.460786,15.677463],[79.460463,15.67741],[79.460362,15.677337],[79.460214,15.677171],[79.459801,15.676007],[79.45967,15.675726],[79.460843,15.675245],[79.460931,15.675512],[79.461046,15.675458],[79.461572,15.676782],[79.461787,15.677339]]]},"properties":{"lp":"195"}},{"type":"Feature","geometry":{"type":"Polygon","coordinates":[[[79.474487,15.682021],[79.473557,15.682373],[79.473117,15.683077],[79.472833,15.68225],[79.472546,15.682161],[79.471997,15.681253],[79.473079,15.68077],[79.473499,15.680793],[79.474487,15.682021]]]},"properties":{"lp":"132"}},{"type":"Feature","geometry":{"type":"Polygon","coordinates":[[[79.475315,15.681121],[79.474853,15.681215],[79.474487,15.682021],[79.473499,15.680793],[79.474618,15.680121],[79.475315,15.681121]]]},"properties":{"lp":"133"}},{"type":"Feature","geometry":{"type":"Polygon","coordinates":[[[79.474618,15.680121],[79.473499,15.680793],[79.473079,15.68077],[79.472636,15.679811],[79.472625,15.679334],[79.473453,15.679062],[79.474618,15.680121]]]},"properties":{"lp":"134"}},{"type":"Feature","geometry":{"type":"Polygon","coordinates":[[[79.473079,15.68077],[79.471997,15.681253],[79.471794,15.680774],[79.471371,15.679666],[79.471716,15.679502],[79.472304,15.678988],[79.472625,15.679334],[79.472636,15.679811],[79.473079,15.68077]]]},"properties":{"lp":"135"}},{"type":"Feature","geometry":{"type":"Polygon","coordinates":[[[79.459459,15.682167],[79.459541,15.682436],[79.45919,15.682526],[79.458561,15.682683],[79.458166,15.681565],[79.457898,15.680724],[79.458814,15.680555],[79.458868,15.680547],[79.459459,15.682167]]]},"properties":{"lp":"164"}},{"type":"Feature","geometry":{"type":"Polygon","coordinates":[[[79.457898,15.680724],[79.457761,15.680745],[79.45728,15.679342],[79.456893,15.67816],[79.457894,15.677977],[79.458395,15.679324],[79.458814,15.680555],[79.457898,15.680724]]]},"properties":{"lp":"165"}},{"type":"Feature","geometry":{"type":"Polygon","coordinates":[[[79.457761,15.680745],[79.456926,15.680937],[79.456189,15.67895],[79.45603,15.678301],[79.456893,15.67816],[79.45728,15.679342],[79.457761,15.680745]]]},"properties":{"lp":"166"}},{"type":"Feature","geometry":{"type":"Polygon","coordinates":[[[79.456893,15.67816],[79.45603,15.678301],[79.455724,15.67721],[79.456401,15.677203],[79.457684,15.677189],[79.457894,15.677977],[79.456893,15.67816]]]},"properties":{"lp":"167"}},{"type":"Feature","geometry":{"type":"Polygon","coordinates":[[[79.471659,15.694443],[79.47081,15.694725],[79.4707,15.694432],[79.470143,15.69464],[79.470054,15.694674],[79.469622,15.693593],[79.469248,15.692776],[79.469104,15.692385],[79.469783,15.692128],[79.469846,15.69211],[79.469889,15.692097],[79.470319,15.693288],[79.471086,15.693001],[79.47123,15.693324],[79.471659,15.694443]]]},"properties":{"lp":"59"}},{"type":"Feature","geometry":{"type":"Polygon","coordinates":[[[79.470247,15.690168],[79.4705,15.690807],[79.470892,15.691708],[79.470687,15.691793],[79.469889,15.692097],[79.469846,15.69211],[79.469783,15.692128],[79.469293,15.691031],[79.469102,15.690507],[79.470205,15.69006],[79.470247,15.690168]]]},"properties":{"lp":"60"}},{"type":"Feature","geometry":{"type":"Polygon","coordinates":[[[79.472349,15.689908],[79.472264,15.689936],[79.47255,15.69088],[79.472636,15.691089],[79.472752,15.691421],[79.470759,15.692045],[79.470687,15.691793],[79.470892,15.691708],[79.4705,15.690807],[79.470247,15.690168],[79.470205,15.69006],[79.471052,15.689737],[79.470872,15.689228],[79.470956,15.689195],[79.471535,15.688969],[79.471919,15.688823],[79.472349,15.689908]]]},"properties":{"lp":"61"}},{"type":"Feature","geometry":{"type":"Polygon","coordinates":[[[79.473649,15.689566],[79.473992,15.69057],[79.472636,15.691089],[79.47255,15.69088],[79.472264,15.689936],[79.472349,15.689908],[79.471919,15.688823],[79.472112,15.688757],[79.472771,15.688538],[79.473269,15.688403],[79.473649,15.689566]]]},"properties":{"lp":"62"}},{"type":"Feature","geometry":{"type":"Polygon","coordinates":[[[79.475937,15.689225],[79.475244,15.689314],[79.474417,15.689668],[79.473649,15.689566],[79.473269,15.688403],[79.474321,15.688053],[79.475633,15.687789],[79.475695,15.687807],[79.47593,15.688537],[79.475937,15.689225]]]},"properties":{"lp":"63"}},{"type":"Feature","geometry":{"type":"Polygon","coordinates":[[[79.474321,15.688053],[79.474078,15.687397],[79.474454,15.687266],[79.47433,15.686997],[79.473957,15.686354],[79.473621,15.685683],[79.473123,15.684641],[79.47339,15.684558],[79.473781,15.683925],[79.474304,15.683481],[79.47496,15.683349],[79.475244,15.68411],[79.47563,15.68524],[79.475901,15.685939],[79.475811,15.686453],[79.475757,15.686895],[79.475656,15.687275],[79.475695,15.687807],[79.475633,15.687789],[79.474321,15.688053]]]},"properties":{"lp":"64"}},{"type":"Feature","geometry":{"type":"Polygon","coordinates":[[[79.462816,15.674959],[79.462539,15.674687],[79.461958,15.675068],[79.46139,15.673741],[79.461015,15.672699],[79.461779,15.672365],[79.46178,15.672472],[79.462571,15.672189],[79.462977,15.673317],[79.462694,15.673421],[79.463212,15.674469],[79.462816,15.674959]]]},"properties":{"lp":"210"}},{"type":"Feature","geometry":{"type":"Polygon","coordinates":[[[79.466888,15.694342],[79.466557,15.694447],[79.466339,15.693988],[79.465887,15.694176],[79.465785,15.693995],[79.465559,15.693382],[79.465508,15.69233],[79.46526,15.691844],[79.465664,15.691689],[79.466201,15.692434],[79.466532,15.693216],[79.466753,15.693682],[79.467599,15.69336],[79.467162,15.692056],[79.466958,15.691481],[79.467567,15.69121],[79.467853,15.691779],[79.468292,15.691535],[79.469293,15.691031],[79.469783,15.692128],[79.469104,15.692385],[79.469248,15.692776],[79.468798,15.692909],[79.468387,15.693056],[79.4685,15.693624],[79.467897,15.693889],[79.466888,15.694342]]]},"properties":{"lp":"90"}},{"type":"Feature","geometry":{"type":"Polygon","coordinates":[[[79.47112,15.697208],[79.470613,15.697402],[79.470128,15.696254],[79.469736,15.695162],[79.46943,15.694424],[79.468798,15.692909],[79.469248,15.692776],[79.469622,15.693593],[79.470054,15.694674],[79.470598,15.695947],[79.47112,15.697208]]]},"properties":{"lp":"91"}},{"type":"Feature","geometry":{"type":"Polygon","coordinates":[[[79.46943,15.694424],[79.469736,15.695162],[79.470128,15.696254],[79.470613,15.697402],[79.470624,15.697664],[79.470406,15.697596],[79.470149,15.697468],[79.469692,15.696128],[79.46955,15.695743],[79.469153,15.69481],[79.468863,15.694085],[79.4685,15.693624],[79.468387,15.693056],[79.468798,15.692909],[79.46943,15.694424]]]},"properties":{"lp":"92"}},{"type":"Feature","geometry":{"type":"Polygon","coordinates":[[[79.468863,15.694085],[79.469153,15.69481],[79.46955,15.695743],[79.469692,15.696128],[79.470149,15.697468],[79.469152,15.696978],[79.46874,15.696023],[79.467897,15.693889],[79.4685,15.693624],[79.468863,15.694085]]]},"properties":{"lp":"93"}},{"type":"Feature","geometry":{"type":"Polygon","coordinates":[[[79.46874,15.696023],[79.469152,15.696978],[79.468735,15.696797],[79.46831,15.696523],[79.468308,15.696522],[79.467984,15.696339],[79.467672,15.69614],[79.466888,15.694342],[79.467897,15.693889],[79.46874,15.696023]]]},"properties":{"lp":"94"}},{"type":"Feature","geometry":{"type":"Polygon","coordinates":[[[79.467672,15.69614],[79.466716,15.6959],[79.4667,15.695892],[79.466568,15.695857],[79.465842,15.69543],[79.465786,15.6954],[79.465463,15.69531],[79.465255,15.695162],[79.465399,15.694742],[79.465785,15.693995],[79.465887,15.694176],[79.466339,15.693988],[79.466557,15.694447],[79.466888,15.694342],[79.467672,15.69614]]]},"properties":{"lp":"95"}},{"type":"Feature","geometry":{"type":"Polygon","coordinates":[[[79.465785,15.693995],[79.465399,15.694742],[79.465255,15.695162],[79.464579,15.695022],[79.464056,15.694804],[79.463752,15.694666],[79.463701,15.694631],[79.46345,15.694457],[79.46344,15.694432],[79.463354,15.694367],[79.463132,15.694295],[79.463396,15.694216],[79.463888,15.694031],[79.464969,15.693626],[79.465559,15.693382],[79.465785,15.693995]]]},"properties":{"lp":"96"}},{"type":"Feature","geometry":{"type":"Polygon","coordinates":[[[79.464969,15.693626],[79.463888,15.694031],[79.463396,15.694216],[79.463132,15.694295],[79.462546,15.694075],[79.464452,15.692501],[79.464969,15.693626]]]},"properties":{"lp":"97"}},{"type":"Feature","geometry":{"type":"Polygon","coordinates":[[[79.464228,15.692024],[79.464452,15.692501],[79.462546,15.694075],[79.462209,15.693948],[79.461823,15.693797],[79.462391,15.69338],[79.463452,15.692088],[79.463981,15.691474],[79.464228,15.692024]]]},"properties":{"lp":"98"}},{"type":"Feature","geometry":{"type":"Polygon","coordinates":[[[79.465559,15.693382],[79.464969,15.693626],[79.464452,15.692501],[79.464228,15.692024],[79.463981,15.691474],[79.464718,15.690701],[79.46526,15.691844],[79.465508,15.69233],[79.465559,15.693382]]]},"properties":{"lp":"99"}},{"type":"Feature","geometry":{"type":"Polygon","coordinates":[[[79.464718,15.690701],[79.463981,15.691474],[79.463777,15.690827],[79.463516,15.689935],[79.463511,15.689836],[79.465254,15.689291],[79.465508,15.689976],[79.465011,15.690419],[79.464718,15.690701]]]},"properties":{"lp":"100"}},{"type":"Feature","geometry":{"type":"Polygon","coordinates":[[[79.466299,15.686138],[79.465211,15.686567],[79.465073,15.685963],[79.464523,15.686003],[79.464452,15.68572],[79.464433,15.685644],[79.466246,15.685166],[79.467081,15.685525],[79.467014,15.685881],[79.466898,15.685923],[79.466299,15.686138]]]},"properties":{"lp":"121"}},{"type":"Feature","geometry":{"type":"Polygon","coordinates":[[[79.468277,15.685475],[79.467014,15.685881],[79.467081,15.685525],[79.466246,15.685166],[79.465585,15.684029],[79.465479,15.683769],[79.466218,15.683447],[79.466604,15.684003],[79.467514,15.684499],[79.46773,15.684783],[79.467937,15.685014],[79.468277,15.685475]]]},"properties":{"lp":"122"}},{"type":"Feature","geometry":{"type":"Polygon","coordinates":[[[79.469415,15.685179],[79.469136,15.685301],[79.469032,15.685242],[79.468277,15.685475],[79.467937,15.685014],[79.46773,15.684783],[79.467514,15.684499],[79.466604,15.684003],[79.466218,15.683447],[79.466908,15.68312],[79.467842,15.682693],[79.468831,15.684629],[79.469128,15.684519],[79.469349,15.684992],[79.469415,15.685179]]]},"properties":{"lp":"123"}},{"type":"Feature","geometry":{"type":"Polygon","coordinates":[[[79.466191,15.681541],[79.466559,15.682356],[79.466908,15.68312],[79.466218,15.683447],[79.465479,15.683769],[79.465233,15.682969],[79.465178,15.682969],[79.464678,15.68183],[79.46451,15.681486],[79.465734,15.680923],[79.465903,15.680852],[79.466191,15.681541]]]},"properties":{"lp":"124"}},{"type":"Feature","geometry":{"type":"Polygon","coordinates":[[[79.468433,15.681625],[79.466559,15.682356],[79.466191,15.681541],[79.465903,15.680852],[79.466965,15.680427],[79.46775,15.680112],[79.467994,15.680725],[79.468218,15.681235],[79.468282,15.681207],[79.468433,15.681625]]]},"properties":{"lp":"125"}},{"type":"Feature","geometry":{"type":"Polygon","coordinates":[[[79.469568,15.685101],[79.469415,15.685179],[79.469349,15.684992],[79.469128,15.684519],[79.468831,15.684629],[79.467842,15.682693],[79.466908,15.68312],[79.466559,15.682356],[79.468433,15.681625],[79.468688,15.682167],[79.469224,15.683277],[79.468827,15.683447],[79.46931,15.684492],[79.469546,15.684375],[79.470181,15.684109],[79.470399,15.684506],[79.469568,15.685101]]]},"properties":{"lp":"126"}},{"type":"Feature","geometry":{"type":"Polygon","coordinates":[[[79.471158,15.682227],[79.470777,15.682456],[79.471371,15.683748],[79.470181,15.684109],[79.469546,15.684375],[79.46931,15.684492],[79.468827,15.683447],[79.469224,15.683277],[79.468688,15.682167],[79.469495,15.681831],[79.469619,15.682068],[79.470507,15.68168],[79.47037,15.681361],[79.470706,15.681218],[79.471158,15.682227]]]},"properties":{"lp":"127"}},{"type":"Feature","geometry":{"type":"Polygon","coordinates":[[[79.469646,15.681457],[79.469758,15.681735],[79.469495,15.681831],[79.468688,15.682167],[79.468433,15.681625],[79.468282,15.681207],[79.468218,15.681235],[79.467994,15.680725],[79.46775,15.680112],[79.468008,15.679985],[79.468953,15.679592],[79.469429,15.680821],[79.469646,15.681457]]]},"properties":{"lp":"128"}},{"type":"Feature","geometry":{"type":"Polygon","coordinates":[[[79.469802,15.680079],[79.470257,15.681133],[79.47037,15.681361],[79.470507,15.68168],[79.469619,15.682068],[79.469495,15.681831],[79.469758,15.681735],[79.469646,15.681457],[79.469429,15.680821],[79.468953,15.679592],[79.469495,15.679342],[79.469802,15.680079]]]},"properties":{"lp":"129"}},{"type":"Feature","geometry":{"type":"Polygon","coordinates":[[[79.471716,15.679502],[79.471371,15.679666],[79.471794,15.680774],[79.470706,15.681218],[79.47037,15.681361],[79.470257,15.681133],[79.469802,15.680079],[79.469495,15.679342],[79.470028,15.679091],[79.470934,15.67871],[79.470993,15.678828],[79.471323,15.678665],[79.471716,15.679502]]]},"properties":{"lp":"130"}},{"type":"Feature","geometry":{"type":"Polygon","coordinates":[[[79.471997,15.681253],[79.472546,15.682161],[79.472833,15.68225],[79.473117,15.683077],[79.472241,15.683473],[79.471371,15.683748],[79.470777,15.682456],[79.471158,15.682227],[79.470706,15.681218],[79.471794,15.680774],[79.471997,15.681253]]]},"properties":{"lp":"131"}},{"type":"Feature","geometry":{"type":"Polygon","coordinates":[[[79.47883,15.683482],[79.47962,15.683946],[79.479999,15.684615],[79.480207,15.684976],[79.48063,15.685737],[79.48106,15.686482],[79.481307,15.686754],[79.481644,15.687227],[79.48213,15.688175],[79.482463,15.688907],[79.48261,15.689892],[79.482809,15.69138],[79.48298,15.692482],[79.483167,15.693213],[79.483587,15.694931],[79.484911,15.69595],[79.485743,15.69663],[79.486738,15.698571],[79.485436,15.698845],[79.484591,15.697128],[79.482437,15.695666],[79.482049,15.693193],[79.481867,15.692159],[79.481344,15.689623],[79.48086,15.688364],[79.48042,15.687434],[79.479926,15.686959],[79.479344,15.685964],[79.478974,15.685352],[79.478116,15.683883],[79.477847,15.682921],[79.477408,15.68303],[79.476913,15.682025],[79.475315,15.681121],[79.474618,15.680121],[79.473453,15.679062],[79.472314,15.677951],[79.471861,15.677662],[79.470842,15.677812],[79.471244,15.677236],[79.470923,15.67657],[79.47035,15.675961],[79.469758,15.675488],[79.469345,15.675083],[79.468734,15.674566],[79.467934,15.673551],[79.466642,15.671972],[79.466063,15.671259],[79.465847,15.670522],[79.465313,15.66996],[79.464771,15.669422],[79.463619,15.669034],[79.462615,15.668444],[79.462363,15.667695],[79.461837,15.667557],[79.461719,15.667296],[79.461248,15.667362],[79.460961,15.666762],[79.460335,15.666825],[79.45991,15.666933],[79.459625,15.666993],[79.459156,15.666203],[79.458611,15.666432],[79.458609,15.66653],[79.457986,15.66695],[79.457818,15.667079],[79.457718,15.665935],[79.457434,15.665902],[79.456823,15.665829],[79.456639,15.665807],[79.455818,15.665878],[79.455237,15.665935],[79.455165,15.666089],[79.453806,15.666537],[79.453367,15.666672],[79.453003,15.667404],[79.452946,15.667476],[79.452108,15.668568],[79.451751,15.668702],[79.451536,15.669925],[79.451497,15.669719],[79.451436,15.669235],[79.45143,15.669197],[79.451423,15.669134],[79.451405,15.668956],[79.451405,15.668919],[79.451408,15.668638],[79.451408,15.668636],[79.45143,15.668539],[79.451443,15.668479],[79.451492,15.668261],[79.451529,15.668096],[79.451751,15.667983],[79.451829,15.667879],[79.452063,15.667569],[79.452333,15.667212],[79.452432,15.667081],[79.452603,15.666855],[79.452654,15.666778],[79.452783,15.666582],[79.452968,15.666303],[79.453171,15.666147],[79.453275,15.666067],[79.453494,15.6659],[79.453925,15.665569],[79.455095,15.66521],[79.455227,15.665153],[79.455303,15.665181],[79.455434,15.665229],[79.45562,15.665297],[79.455936,15.665219],[79.455946,15.665217],[79.456027,15.665245],[79.456111,15.665232],[79.456328,15.665308],[79.456414,15.665338],[79.45669,15.665436],[79.456692,15.665442],[79.457855,15.665562],[79.458708,15.665862],[79.458975,15.665804],[79.459145,15.665766],[79.459173,15.665805],[79.459272,15.665944],[79.459313,15.66597],[79.459919,15.666366],[79.460156,15.666305],[79.460278,15.666273],[79.460315,15.666288],[79.460592,15.666397],[79.46089,15.66637],[79.460985,15.666398],[79.461128,15.666441],[79.461346,15.666633],[79.461479,15.666749],[79.461526,15.66679],[79.461556,15.666816],[79.461633,15.666818],[79.461902,15.666824],[79.462176,15.667052],[79.462613,15.66718],[79.462998,15.667607],[79.463195,15.66779],[79.463648,15.668038],[79.463688,15.66815],[79.463777,15.668402],[79.463783,15.668419],[79.463922,15.668506],[79.464137,15.66864],[79.464139,15.668642],[79.464885,15.668957],[79.465099,15.668997],[79.466397,15.670241],[79.466954,15.671177],[79.467046,15.671315],[79.467191,15.671532],[79.467269,15.671649],[79.46741,15.671861],[79.467523,15.671981],[79.467663,15.67213],[79.467819,15.672296],[79.467913,15.672397],[79.468028,15.67252],[79.468085,15.67258],[79.468718,15.673256],[79.469181,15.673762],[79.469832,15.674231],[79.470779,15.674737],[79.470782,15.674739],[79.471831,15.675394],[79.472212,15.675884],[79.472847,15.676685],[79.473523,15.677818],[79.473922,15.678486],[79.474397,15.678856],[79.474399,15.678859],[79.474602,15.679098],[79.474924,15.679611],[79.475413,15.680341],[79.476013,15.680979],[79.476261,15.681126],[79.476726,15.681412],[79.477184,15.681617],[79.477236,15.68164],[79.477386,15.681762],[79.477822,15.68232],[79.478388,15.682633],[79.47883,15.683482]]]},"properties":{"lp":"219"}},{"type":"Feature","geometry":{"type":"Polygon","coordinates":[[[79.461046,15.675458],[79.460931,15.675512],[79.460843,15.675245],[79.45967,15.675726],[79.459539,15.675462],[79.459404,15.675062],[79.45958,15.674985],[79.459268,15.674028],[79.459377,15.673963],[79.459977,15.673733],[79.460153,15.674166],[79.46139,15.673741],[79.461958,15.675068],[79.461046,15.675458]]]},"properties":{"lp":"196"}},{"type":"Feature","geometry":{"type":"Polygon","coordinates":[[[79.461958,15.675068],[79.462539,15.674687],[79.462816,15.674959],[79.462599,15.675179],[79.462262,15.67617],[79.462302,15.676392],[79.461572,15.676782],[79.461046,15.675458],[79.461958,15.675068]]]},"properties":{"lp":"197"}},{"type":"Feature","geometry":{"type":"Polygon","coordinates":[[[79.463273,15.67617],[79.462834,15.676361],[79.463196,15.677303],[79.462067,15.677335],[79.461787,15.677339],[79.461572,15.676782],[79.462302,15.676392],[79.462262,15.67617],[79.462599,15.675179],[79.462816,15.674959],[79.463273,15.67617]]]},"properties":{"lp":"198"}},{"type":"Feature","geometry":{"type":"Polygon","coordinates":[[[79.464275,15.67658],[79.464724,15.677548],[79.464378,15.677472],[79.463379,15.677335],[79.463196,15.677303],[79.462834,15.676361],[79.463273,15.67617],[79.462816,15.674959],[79.463212,15.674469],[79.463909,15.676124],[79.464061,15.676103],[79.464275,15.67658]]]},"properties":{"lp":"199"}},{"type":"Feature","geometry":{"type":"Polygon","coordinates":[[[79.464888,15.676267],[79.465415,15.677544],[79.464724,15.677548],[79.464275,15.67658],[79.464061,15.676103],[79.463909,15.676124],[79.463212,15.674469],[79.463308,15.674309],[79.464276,15.674055],[79.464356,15.674955],[79.464888,15.676267]]]},"properties":{"lp":"200"}},{"type":"Feature","geometry":{"type":"Polygon","coordinates":[[[79.465581,15.677463],[79.465415,15.677544],[79.464888,15.676267],[79.464356,15.674955],[79.465298,15.67452],[79.465857,15.67591],[79.466425,15.677242],[79.466261,15.677251],[79.465581,15.677463]]]},"properties":{"lp":"201"}},{"type":"Feature","geometry":{"type":"Polygon","coordinates":[[[79.467128,15.675854],[79.467633,15.677162],[79.467021,15.677214],[79.466425,15.677242],[79.465857,15.67591],[79.465298,15.67452],[79.466412,15.674006],[79.466805,15.675044],[79.466864,15.675035],[79.467128,15.675854]]]},"properties":{"lp":"202"}},{"type":"Feature","geometry":{"type":"Polygon","coordinates":[[[79.46883,15.67552],[79.468318,15.675694],[79.468608,15.676389],[79.468152,15.676494],[79.468354,15.67714],[79.467633,15.677162],[79.467128,15.675854],[79.466864,15.675035],[79.466805,15.675044],[79.466412,15.674006],[79.466107,15.67342],[79.466817,15.673178],[79.467496,15.674945],[79.46834,15.674641],[79.46883,15.67552]]]},"properties":{"lp":"203"}},{"type":"Feature","geometry":{"type":"Polygon","coordinates":[[[79.469345,15.675083],[79.469758,15.675488],[79.47035,15.675961],[79.469597,15.676064],[79.468608,15.676389],[79.468318,15.675694],[79.46883,15.67552],[79.46834,15.674641],[79.467496,15.674945],[79.466817,15.673178],[79.466107,15.67342],[79.465635,15.673181],[79.465617,15.672867],[79.466642,15.671972],[79.467934,15.673551],[79.468734,15.674566],[79.469345,15.675083]]]},"properties":{"lp":"204"}},{"type":"Feature","geometry":{"type":"Polygon","coordinates":[[[79.465298,15.67452],[79.464356,15.674955],[79.464276,15.674055],[79.464683,15.673461],[79.4648,15.673307],[79.465617,15.672867],[79.465635,15.673181],[79.466107,15.67342],[79.466412,15.674006],[79.465298,15.67452]]]},"properties":{"lp":"205"}},{"type":"Feature","geometry":{"type":"Polygon","coordinates":[[[79.464276,15.674055],[79.463308,15.674309],[79.463212,15.674469],[79.462694,15.673421],[79.462977,15.673317],[79.463191,15.6735],[79.464916,15.672803],[79.465485,15.672517],[79.466642,15.671972],[79.465617,15.672867],[79.4648,15.673307],[79.464683,15.673461],[79.464276,15.674055]]]},"properties":{"lp":"206"}},{"type":"Feature","geometry":{"type":"Polygon","coordinates":[[[79.465485,15.672517],[79.464916,15.672803],[79.463191,15.6735],[79.462977,15.673317],[79.463265,15.672999],[79.46312,15.672502],[79.463614,15.672335],[79.46372,15.672509],[79.465074,15.67197],[79.465259,15.672156],[79.465485,15.672517]]]},"properties":{"lp":"207"}},{"type":"Feature","geometry":{"type":"Polygon","coordinates":[[[79.466063,15.671259],[79.466642,15.671972],[79.465485,15.672517],[79.465259,15.672156],[79.465074,15.67197],[79.464936,15.671816],[79.46459,15.671067],[79.465847,15.670522],[79.466063,15.671259]]]},"properties":{"lp":"208"}},{"type":"Feature","geometry":{"type":"Polygon","coordinates":[[[79.46312,15.672502],[79.463265,15.672999],[79.462977,15.673317],[79.462571,15.672189],[79.462929,15.672078],[79.462937,15.671886],[79.463135,15.671678],[79.462993,15.671231],[79.464522,15.670664],[79.46459,15.671067],[79.464936,15.671816],[79.465074,15.67197],[79.46372,15.672509],[79.463614,15.672335],[79.46312,15.672502]]]},"properties":{"lp":"209"}},{"type":"Feature","geometry":{"type":"Polygon","coordinates":[[[79.463981,15.691474],[79.463452,15.692088],[79.462391,15.69338],[79.461513,15.69148],[79.462456,15.691084],[79.463045,15.690988],[79.463777,15.690827],[79.463981,15.691474]]]},"properties":{"lp":"101"}},{"type":"Feature","geometry":{"type":"Polygon","coordinates":[[[79.462391,15.69338],[79.461823,15.693797],[79.461469,15.69373],[79.460691,15.691758],[79.461513,15.69148],[79.462391,15.69338]]]},"properties":{"lp":"102"}},{"type":"Feature","geometry":{"type":"Polygon","coordinates":[[[79.461469,15.69373],[79.46012,15.693505],[79.459222,15.692264],[79.459945,15.692027],[79.460691,15.691758],[79.461469,15.69373]]]},"properties":{"lp":"103"}},{"type":"Feature","geometry":{"type":"Polygon","coordinates":[[[79.463777,15.690827],[79.463045,15.690988],[79.462456,15.691084],[79.461513,15.69148],[79.460691,15.691758],[79.459945,15.692027],[79.459222,15.692264],[79.458337,15.689994],[79.458202,15.689815],[79.458014,15.689361],[79.459751,15.688723],[79.460254,15.689027],[79.462062,15.689885],[79.46221,15.690086],[79.463516,15.689935],[79.463777,15.690827]]]},"properties":{"lp":"104"}},{"type":"Feature","geometry":{"type":"Polygon","coordinates":[[[79.463516,15.689935],[79.46221,15.690086],[79.462062,15.689885],[79.460254,15.689027],[79.459751,15.688723],[79.462705,15.68793],[79.462742,15.68801],[79.463095,15.688839],[79.463456,15.689523],[79.463511,15.689836],[79.463516,15.689935]]]},"properties":{"lp":"105"}},{"type":"Feature","geometry":{"type":"Polygon","coordinates":[[[79.466624,15.689055],[79.465508,15.689976],[79.465254,15.689291],[79.464285,15.687411],[79.465416,15.686985],[79.465753,15.687719],[79.466138,15.687611],[79.466785,15.688968],[79.466624,15.689055]]]},"properties":{"lp":"116"}},{"type":"Feature","geometry":{"type":"Polygon","coordinates":[[[79.467847,15.688056],[79.466785,15.688968],[79.466138,15.687611],[79.465753,15.687719],[79.465416,15.686985],[79.465254,15.686674],[79.465211,15.686567],[79.466299,15.686138],[79.466775,15.687112],[79.467373,15.686944],[79.467847,15.688056]]]},"properties":{"lp":"117"}},{"type":"Feature","geometry":{"type":"Polygon","coordinates":[[[79.469708,15.686546],[79.469359,15.686835],[79.468993,15.687088],[79.467847,15.688056],[79.467373,15.686944],[79.467753,15.686644],[79.468186,15.686361],[79.468373,15.686225],[79.469265,15.685653],[79.469461,15.685499],[79.469593,15.685421],[79.469708,15.686546]]]},"properties":{"lp":"118"}},{"type":"Feature","geometry":{"type":"Polygon","coordinates":[[[79.469593,15.685421],[79.469461,15.685499],[79.469265,15.685653],[79.468373,15.686225],[79.46829,15.68558],[79.468277,15.685475],[79.469032,15.685242],[79.469136,15.685301],[79.469415,15.685179],[79.469568,15.685101],[79.469571,15.685137],[79.469593,15.685421]]]},"properties":{"lp":"119"}},{"type":"Feature","geometry":{"type":"Polygon","coordinates":[[[79.46829,15.68558],[79.468373,15.686225],[79.468186,15.686361],[79.467753,15.686644],[79.467373,15.686944],[79.466775,15.687112],[79.466299,15.686138],[79.466898,15.685923],[79.467014,15.685881],[79.468277,15.685475],[79.46829,15.68558]]]},"properties":{"lp":"120"}},{"type":"Feature","geometry":{"type":"Polygon","coordinates":[[[79.471716,15.679502],[79.471323,15.678665],[79.470993,15.678828],[79.470934,15.67871],[79.471162,15.678629],[79.470842,15.677812],[79.471861,15.677662],[79.472314,15.677951],[79.473453,15.679062],[79.472625,15.679334],[79.472304,15.678988],[79.471716,15.679502]]]},"properties":{"lp":"136"}},{"type":"Feature","geometry":{"type":"Polygon","coordinates":[[[79.471162,15.678629],[79.470934,15.67871],[79.470028,15.679091],[79.469495,15.679342],[79.468953,15.679592],[79.468008,15.679985],[79.467795,15.679521],[79.469348,15.67874],[79.469723,15.67847],[79.470222,15.678184],[79.470842,15.677812],[79.471162,15.678629]]]},"properties":{"lp":"137"}},{"type":"Feature","geometry":{"type":"Polygon","coordinates":[[[79.471244,15.677236],[79.470842,15.677812],[79.470222,15.678184],[79.469723,15.67847],[79.469348,15.67874],[79.468871,15.677672],[79.46918,15.677244],[79.469789,15.676988],[79.470923,15.67657],[79.471244,15.677236]]]},"properties":{"lp":"138"}},{"type":"Feature","geometry":{"type":"Polygon","coordinates":[[[79.470923,15.67657],[79.469789,15.676988],[79.46918,15.677244],[79.468871,15.677672],[79.468833,15.677224],[79.468354,15.67714],[79.468152,15.676494],[79.468608,15.676389],[79.469597,15.676064],[79.47035,15.675961],[79.470923,15.67657]]]},"properties":{"lp":"139"}},{"type":"Feature","geometry":{"type":"Polygon","coordinates":[[[79.462571,15.672189],[79.46178,15.672472],[79.461779,15.672365],[79.461015,15.672699],[79.460778,15.672143],[79.460908,15.672101],[79.460538,15.671085],[79.461312,15.670832],[79.461224,15.670624],[79.461499,15.670431],[79.46162,15.670363],[79.462755,15.670861],[79.462993,15.671231],[79.463135,15.671678],[79.462937,15.671886],[79.462929,15.672078],[79.462571,15.672189]]]},"properties":{"lp":"211"}},{"type":"Feature","geometry":{"type":"Polygon","coordinates":[[[79.46139,15.673741],[79.460153,15.674166],[79.459977,15.673733],[79.459377,15.673963],[79.459017,15.673007],[79.459552,15.672789],[79.459467,15.672508],[79.460155,15.672281],[79.460413,15.672176],[79.460406,15.672123],[79.460721,15.672004],[79.460778,15.672143],[79.461015,15.672699],[79.46139,15.673741]]]},"properties":{"lp":"212"}},{"type":"Feature","geometry":{"type":"Polygon","coordinates":[[[79.473868,15.703853],[79.472938,15.704612],[79.472765,15.705571],[79.472297,15.705463],[79.472137,15.704585],[79.472148,15.703809],[79.472357,15.703795],[79.473653,15.703694],[79.473633,15.703617],[79.473789,15.703608],[79.473868,15.703853]]]},"properties":{"lp":"1"}},{"type":"Feature","geometry":{"type":"Polygon","coordinates":[[[79.475556,15.704013],[79.475766,15.70459],[79.476018,15.705339],[79.474116,15.704878],[79.472938,15.704612],[79.473868,15.703853],[79.474226,15.70401],[79.474532,15.703932],[79.474582,15.703991],[79.474831,15.703937],[79.474899,15.704052],[79.475231,15.704073],[79.475556,15.704013]]]},"properties":{"lp":"2"}},{"type":"Feature","geometry":{"type":"Polygon","coordinates":[[[79.476099,15.706166],[79.475347,15.706281],[79.474083,15.705934],[79.472765,15.705571],[79.472938,15.704612],[79.474116,15.704878],[79.476018,15.705339],[79.47715,15.705547],[79.477553,15.70546],[79.478132,15.705439],[79.478144,15.706278],[79.477464,15.706096],[79.476099,15.706166]]]},"properties":{"lp":"3"}},{"type":"Feature","geometry":{"type":"Polygon","coordinates":[[[79.477579,15.703848],[79.477553,15.70546],[79.47715,15.705547],[79.476018,15.705339],[79.475766,15.70459],[79.475556,15.704013],[79.476315,15.703828],[79.477242,15.703669],[79.477579,15.703848]]]},"properties":{"lp":"4"}},{"type":"Feature","geometry":{"type":"Polygon","coordinates":[[[79.476853,15.701458],[79.477263,15.701338],[79.477561,15.702191],[79.477806,15.702949],[79.477835,15.703088],[79.478068,15.703781],[79.477579,15.703848],[79.477242,15.703669],[79.476845,15.702463],[79.476504,15.701554],[79.476853,15.701458]]]},"properties":{"lp":"5"}},{"type":"Feature","geometry":{"type":"Polygon","coordinates":[[[79.476845,15.702463],[79.477242,15.703669],[79.476315,15.703828],[79.475869,15.702347],[79.475677,15.701762],[79.47598,15.701686],[79.476504,15.701554],[79.476845,15.702463]]]},"properties":{"lp":"6"}},{"type":"Feature","geometry":{"type":"Polygon","coordinates":[[[79.476315,15.703828],[79.475556,15.704013],[79.475231,15.704073],[79.474899,15.704052],[79.474831,15.703937],[79.474296,15.702153],[79.475113,15.701916],[79.475677,15.701762],[79.475869,15.702347],[79.476315,15.703828]]]},"properties":{"lp":"7"}},{"type":"Feature","geometry":{"type":"Polygon","coordinates":[[[79.474226,15.70401],[79.473868,15.703853],[79.473789,15.703608],[79.473633,15.703617],[79.473369,15.702549],[79.473346,15.702425],[79.474235,15.702169],[79.474296,15.702153],[79.474831,15.703937],[79.474582,15.703991],[79.474532,15.703932],[79.474226,15.70401]]]},"properties":{"lp":"8"}},{"type":"Feature","geometry":{"type":"Polygon","coordinates":[[[79.473547,15.700515],[79.474235,15.702169],[79.473346,15.702425],[79.473274,15.702028],[79.472948,15.700455],[79.472924,15.700325],[79.472711,15.699916],[79.472055,15.699324],[79.471876,15.699138],[79.471585,15.698853],[79.471504,15.698744],[79.472656,15.698372],[79.473547,15.700515]]]},"properties":{"lp":"9"}},{"type":"Feature","geometry":{"type":"Polygon","coordinates":[[[79.474296,15.702153],[79.474235,15.702169],[79.473547,15.700515],[79.472656,15.698372],[79.473254,15.698169],[79.474038,15.699738],[79.475113,15.701916],[79.474296,15.702153]]]},"properties":{"lp":"10"}},{"type":"Feature","geometry":{"type":"Polygon","coordinates":[[[79.475677,15.701762],[79.475113,15.701916],[79.474038,15.699738],[79.473254,15.698169],[79.473942,15.697989],[79.475015,15.699913],[79.47598,15.701686],[79.475677,15.701762]]]},"properties":{"lp":"11"}},{"type":"Feature","geometry":{"type":"Polygon","coordinates":[[[79.476504,15.701554],[79.47598,15.701686],[79.475015,15.699913],[79.473942,15.697989],[79.474536,15.697859],[79.474994,15.698551],[79.475966,15.70007],[79.476853,15.701458],[79.476504,15.701554]]]},"properties":{"lp":"12"}},{"type":"Feature","geometry":{"type":"Polygon","coordinates":[[[79.477263,15.701338],[79.476853,15.701458],[79.475966,15.70007],[79.474994,15.698551],[79.474536,15.697859],[79.47517,15.697677],[79.47597,15.698757],[79.477142,15.700372],[79.477738,15.701186],[79.477263,15.701338]]]},"properties":{"lp":"13"}},{"type":"Feature","geometry":{"type":"Polygon","coordinates":[[[79.478584,15.700936],[79.477738,15.701186],[79.477142,15.700372],[79.47597,15.698757],[79.476726,15.698312],[79.477152,15.698885],[79.478584,15.700936]]]},"properties":{"lp":"14"}},{"type":"Feature","geometry":{"type":"Polygon","coordinates":[[[79.477675,15.698585],[79.477152,15.698885],[79.476726,15.698312],[79.47597,15.698757],[79.47517,15.697677],[79.475671,15.697543],[79.475938,15.697493],[79.476678,15.698137],[79.477315,15.697884],[79.477675,15.698585]]]},"properties":{"lp":"15"}},{"type":"Feature","geometry":{"type":"Polygon","coordinates":[[[79.478972,15.698001],[79.477675,15.698585],[79.477315,15.697884],[79.476678,15.698137],[79.475938,15.697493],[79.477017,15.697121],[79.478778,15.696429],[79.479909,15.696883],[79.480522,15.696756],[79.48071,15.697201],[79.478972,15.698001]]]},"properties":{"lp":"16"}},{"type":"Feature","geometry":{"type":"Polygon","coordinates":[[[79.481765,15.699665],[79.480921,15.699964],[79.479982,15.700324],[79.478972,15.698001],[79.48071,15.697201],[79.481393,15.698774],[79.481765,15.699665]]]},"properties":{"lp":"17"}},{"type":"Feature","geometry":{"type":"Polygon","coordinates":[[[79.48223,15.700788],[79.481462,15.70113],[79.480278,15.701673],[79.479156,15.702211],[79.479112,15.702156],[79.478584,15.700936],[79.477152,15.698885],[79.477675,15.698585],[79.478972,15.698001],[79.479982,15.700324],[79.480921,15.699964],[79.481765,15.699665],[79.48223,15.700788]]]},"properties":{"lp":"18"}},{"type":"Feature","geometry":{"type":"Polygon","coordinates":[[[79.483193,15.702909],[79.481709,15.703587],[79.480648,15.704088],[79.480202,15.703303],[79.479156,15.702211],[79.480278,15.701673],[79.481462,15.70113],[79.48223,15.700788],[79.483193,15.702909]]]},"properties":{"lp":"19"}},{"type":"Feature","geometry":{"type":"Polygon","coordinates":[[[79.480648,15.704088],[79.480293,15.704237],[79.47991,15.7043],[79.479109,15.703694],[79.478068,15.703781],[79.477835,15.703088],[79.477806,15.702949],[79.477561,15.702191],[79.477263,15.701338],[79.477738,15.701186],[79.478584,15.700936],[79.479112,15.702156],[79.479156,15.702211],[79.480202,15.703303],[79.480648,15.704088]]]},"properties":{"lp":"20"}},{"type":"Feature","geometry":{"type":"Polygon","coordinates":[[[79.480361,15.705197],[79.478132,15.705439],[79.477553,15.70546],[79.477579,15.703848],[79.478068,15.703781],[79.479109,15.703694],[79.47991,15.7043],[79.480293,15.704237],[79.480361,15.705197]]]},"properties":{"lp":"21"}},{"type":"Feature","geometry":{"type":"Polygon","coordinates":[[[79.480095,15.706605],[79.478697,15.706421],[79.478144,15.706278],[79.478132,15.705439],[79.480361,15.705197],[79.480095,15.706605]]]},"properties":{"lp":"22"}},{"type":"Feature","geometry":{"type":"Polygon","coordinates":[[[79.481702,15.706878],[79.480886,15.706724],[79.480095,15.706605],[79.480361,15.705197],[79.481662,15.705013],[79.481702,15.706878]]]},"properties":{"lp":"23"}},{"type":"Feature","geometry":{"type":"Polygon","coordinates":[[[79.484788,15.705092],[79.484369,15.705872],[79.484582,15.706947],[79.48305,15.707291],[79.483361,15.707563],[79.482659,15.707361],[79.481702,15.706878],[79.481662,15.705013],[79.480361,15.705197],[79.480293,15.704237],[79.480648,15.704088],[79.481709,15.703587],[79.483193,15.702909],[79.484048,15.702841],[79.484576,15.703976],[79.484788,15.705092]]]},"properties":{"lp":"24"}},{"type":"Feature","geometry":{"type":"Polygon","coordinates":[[[79.485199,15.706111],[79.485478,15.706686],[79.485679,15.707048],[79.48576,15.707254],[79.484252,15.707733],[79.483643,15.707744],[79.483361,15.707563],[79.48305,15.707291],[79.484582,15.706947],[79.484369,15.705872],[79.484788,15.705092],[79.485199,15.706111]]]},"properties":{"lp":"25"}},{"type":"Feature","geometry":{"type":"Polygon","coordinates":[[[79.49043,15.706867],[79.490277,15.707502],[79.489897,15.707372],[79.489721,15.707311],[79.48797,15.706699],[79.486845,15.706784],[79.48606,15.707115],[79.48576,15.707254],[79.485679,15.707048],[79.485478,15.706686],[79.486687,15.706328],[79.488155,15.705906],[79.488242,15.705881],[79.487741,15.705316],[79.486848,15.704316],[79.485897,15.703291],[79.485959,15.702962],[79.486203,15.701677],[79.485797,15.700193],[79.48545,15.698874],[79.485436,15.698845],[79.486738,15.698571],[79.486832,15.698806],[79.48695,15.699255],[79.486766,15.7003],[79.486867,15.700598],[79.486902,15.701595],[79.486874,15.701837],[79.486683,15.702943],[79.488122,15.704626],[79.488855,15.705463],[79.489124,15.705717],[79.489667,15.706196],[79.49043,15.706867]]]},"properties":{"lp":"26"}},{"type":"Feature","geometry":{"type":"Polygon","coordinates":[[[79.488242,15.705881],[79.488155,15.705906],[79.486687,15.706328],[79.485478,15.706686],[79.485199,15.706111],[79.487651,15.705344],[79.487741,15.705316],[79.488242,15.705881]]]},"properties":{"lp":"27"}},{"type":"Feature","geometry":{"type":"Polygon","coordinates":[[[79.486848,15.704316],[79.487741,15.705316],[79.487651,15.705344],[79.485199,15.706111],[79.484788,15.705092],[79.484576,15.703976],[79.485815,15.703333],[79.485897,15.703291],[79.486848,15.704316]]]},"properties":{"lp":"28"}},{"type":"Feature","geometry":{"type":"Polygon","coordinates":[[[79.485804,15.703203],[79.485897,15.703291],[79.485815,15.703333],[79.484576,15.703976],[79.484048,15.702841],[79.485132,15.702566],[79.485804,15.703203]]]},"properties":{"lp":"29"}},{"type":"Feature","geometry":{"type":"Polygon","coordinates":[[[79.486203,15.701677],[79.485959,15.702962],[79.485897,15.703291],[79.485804,15.703203],[79.485132,15.702566],[79.484666,15.700811],[79.485708,15.700242],[79.485797,15.700193],[79.486203,15.701677]]]},"properties":{"lp":"30"}},{"type":"Feature","geometry":{"type":"Polygon","coordinates":[[[79.484666,15.700811],[79.485132,15.702566],[79.484048,15.702841],[79.483279,15.701013],[79.483041,15.700495],[79.482993,15.700501],[79.482653,15.699488],[79.482176,15.698132],[79.484478,15.697175],[79.484591,15.697128],[79.485436,15.698845],[79.48545,15.698874],[79.485797,15.700193],[79.485708,15.700242],[79.484666,15.700811]]]},"properties":{"lp":"31"}},{"type":"Feature","geometry":{"type":"Polygon","coordinates":[[[79.484048,15.702841],[79.483193,15.702909],[79.48223,15.700788],[79.482993,15.700501],[79.483041,15.700495],[79.483279,15.701013],[79.484048,15.702841]]]},"properties":{"lp":"32"}},{"type":"Feature","geometry":{"type":"Polygon","coordinates":[[[79.482993,15.700501],[79.48223,15.700788],[79.481765,15.699665],[79.481393,15.698774],[79.48071,15.697201],[79.480522,15.696756],[79.481358,15.696285],[79.482176,15.698132],[79.482653,15.699488],[79.482993,15.700501]]]},"properties":{"lp":"33"}},{"type":"Feature","geometry":{"type":"Polygon","coordinates":[[[79.484591,15.697128],[79.484478,15.697175],[79.482176,15.698132],[79.481358,15.696285],[79.482355,15.695714],[79.482437,15.695666],[79.484591,15.697128]]]},"properties":{"lp":"34"}},{"type":"Feature","geometry":{"type":"Polygon","coordinates":[[[79.481867,15.692159],[79.482049,15.693193],[79.482437,15.695666],[79.482355,15.695714],[79.481358,15.696285],[79.480522,15.696756],[79.479661,15.696408],[79.478908,15.694031],[79.478837,15.693809],[79.478913,15.693794],[79.478757,15.693182],[79.47888,15.692557],[79.478733,15.692059],[79.478158,15.692246],[79.477921,15.691718],[79.479622,15.691322],[79.479475,15.69054],[79.479325,15.690584],[79.479162,15.69011],[79.479328,15.690078],[79.479812,15.690168],[79.481231,15.689664],[79.481344,15.689623],[79.481867,15.692159]]]},"properties":{"lp":"35"}},{"type":"Feature","geometry":{"type":"Polygon","coordinates":[[[79.481344,15.689623],[79.481231,15.689664],[79.479812,15.690168],[79.479328,15.690078],[79.478866,15.689056],[79.478845,15.689001],[79.480751,15.688398],[79.48086,15.688364],[79.481344,15.689623]]]},"properties":{"lp":"36"}},{"type":"Feature","geometry":{"type":"Polygon","coordinates":[[[79.480244,15.687378],[79.48042,15.687434],[79.48086,15.688364],[79.480751,15.688398],[79.478845,15.689001],[79.478428,15.688346],[79.478458,15.687694],[79.479879,15.687263],[79.480244,15.687378]]]},"properties":{"lp":"37"}},{"type":"Feature","geometry":{"type":"Polygon","coordinates":[[[79.478866,15.689056],[79.477728,15.689276],[79.47683,15.689227],[79.476271,15.689292],[79.475937,15.689225],[79.47593,15.688537],[79.475695,15.687807],[79.477539,15.688296],[79.478458,15.687694],[79.478428,15.688346],[79.478845,15.689001],[79.478866,15.689056]]]},"properties":{"lp":"38"}},{"type":"Feature","geometry":{"type":"Polygon","coordinates":[[[79.479325,15.690584],[79.477561,15.69113],[79.47683,15.689227],[79.477728,15.689276],[79.478866,15.689056],[79.479328,15.690078],[79.479162,15.69011],[79.479325,15.690584]]]},"properties":{"lp":"39"}},{"type":"Feature","geometry":{"type":"Polygon","coordinates":[[[79.477561,15.69113],[79.476401,15.691544],[79.475913,15.690316],[79.476271,15.689292],[79.47683,15.689227],[79.477561,15.69113]]]},"properties":{"lp":"40"}},{"type":"Feature","geometry":{"type":"Polygon","coordinates":[[[79.478158,15.692246],[79.476839,15.692688],[79.476694,15.692372],[79.476401,15.691544],[79.477561,15.69113],[79.479325,15.690584],[79.479475,15.69054],[79.479622,15.691322],[79.477921,15.691718],[79.478158,15.692246]]]},"properties":{"lp":"41"}},{"type":"Feature","geometry":{"type":"Polygon","coordinates":[[[79.477265,15.693766],[79.475766,15.694335],[79.475299,15.693178],[79.475509,15.693091],[79.47536,15.69251],[79.47575,15.692545],[79.476253,15.692544],[79.476694,15.692372],[79.476839,15.692688],[79.477265,15.693766]]]},"properties":{"lp":"42"}},{"type":"Feature","geometry":{"type":"Polygon","coordinates":[[[79.478908,15.694031],[79.477491,15.694366],[79.477265,15.693766],[79.476839,15.692688],[79.478158,15.692246],[79.478733,15.692059],[79.47888,15.692557],[79.478757,15.693182],[79.478913,15.693794],[79.478837,15.693809],[79.478908,15.694031]]]},"properties":{"lp":"43"}},{"type":"Feature","geometry":{"type":"Polygon","coordinates":[[[79.477928,15.69576],[79.476503,15.696084],[79.476459,15.695873],[79.476028,15.694883],[79.475766,15.694335],[79.477265,15.693766],[79.477491,15.694366],[79.477928,15.69576]]]},"properties":{"lp":"44"}},{"type":"Feature","geometry":{"type":"Polygon","coordinates":[[[79.478908,15.694031],[79.479661,15.696408],[79.478095,15.696155],[79.477928,15.69576],[79.477491,15.694366],[79.478908,15.694031]]]},"properties":{"lp":"45"}},{"type":"Feature","geometry":{"type":"Polygon","coordinates":[[[79.480522,15.696756],[79.479909,15.696883],[79.478778,15.696429],[79.477017,15.697121],[79.476503,15.696084],[79.477928,15.69576],[79.478095,15.696155],[79.479661,15.696408],[79.480522,15.696756]]]},"properties":{"lp":"46"}},{"type":"Feature","geometry":{"type":"Polygon","coordinates":[[[79.475938,15.697493],[79.475671,15.697543],[79.475335,15.696951],[79.474748,15.695986],[79.475386,15.695935],[79.476459,15.695873],[79.476503,15.696084],[79.477017,15.697121],[79.475938,15.697493]]]},"properties":{"lp":"47"}},{"type":"Feature","geometry":{"type":"Polygon","coordinates":[[[79.473734,15.693766],[79.473681,15.69368],[79.473906,15.693626],[79.475299,15.693178],[79.475766,15.694335],[79.476028,15.694883],[79.476459,15.695873],[79.475386,15.695935],[79.474748,15.695986],[79.474414,15.69532],[79.47379,15.693863],[79.473734,15.693766]]]},"properties":{"lp":"48"}},{"type":"Feature","geometry":{"type":"Polygon","coordinates":[[[79.475299,15.693178],[79.473906,15.693626],[79.473426,15.692302],[79.474688,15.691881],[79.475073,15.691468],[79.47495,15.691072],[79.475256,15.690955],[79.475511,15.691725],[79.47575,15.692545],[79.47536,15.69251],[79.475509,15.693091],[79.475299,15.693178]]]},"properties":{"lp":"49"}},{"type":"Feature","geometry":{"type":"Polygon","coordinates":[[[79.476694,15.692372],[79.476253,15.692544],[79.47575,15.692545],[79.475511,15.691725],[79.475256,15.690955],[79.47495,15.691072],[79.474901,15.691081],[79.474417,15.689668],[79.475244,15.689314],[79.475937,15.689225],[79.476271,15.689292],[79.475913,15.690316],[79.476401,15.691544],[79.476694,15.692372]]]},"properties":{"lp":"50"}},{"type":"Feature","geometry":{"type":"Polygon","coordinates":[[[79.473426,15.692302],[79.473037,15.692422],[79.472752,15.691421],[79.472636,15.691089],[79.473992,15.69057],[79.473649,15.689566],[79.474417,15.689668],[79.474901,15.691081],[79.47495,15.691072],[79.475073,15.691468],[79.474688,15.691881],[79.473426,15.692302]]]},"properties":{"lp":"51"}},{"type":"Feature","geometry":{"type":"Polygon","coordinates":[[[79.471428,15.69333],[79.47123,15.693324],[79.471086,15.693001],[79.470319,15.693288],[79.469889,15.692097],[79.470687,15.691793],[79.470759,15.692045],[79.472752,15.691421],[79.473037,15.692422],[79.473029,15.692502],[79.472914,15.692552],[79.472932,15.692816],[79.471428,15.69333]]]},"properties":{"lp":"52"}},{"type":"Feature","geometry":{"type":"Polygon","coordinates":[[[79.473734,15.693766],[79.472518,15.694183],[79.471659,15.694443],[79.47123,15.693324],[79.471428,15.69333],[79.472932,15.692816],[79.472914,15.692552],[79.473029,15.692502],[79.473037,15.692422],[79.473426,15.692302],[79.473906,15.693626],[79.473681,15.69368],[79.473734,15.693766]]]},"properties":{"lp":"53"}},{"type":"Feature","geometry":{"type":"Polygon","coordinates":[[[79.474414,15.69532],[79.473098,15.695754],[79.472818,15.695236],[79.472518,15.694183],[79.473734,15.693766],[79.47379,15.693863],[79.474414,15.69532]]]},"properties":{"lp":"54"}},{"type":"Feature","geometry":{"type":"Polygon","coordinates":[[[79.473942,15.697989],[79.473254,15.698169],[79.472939,15.697355],[79.472685,15.696748],[79.47267,15.696695],[79.473098,15.695754],[79.474414,15.69532],[79.474748,15.695986],[79.475335,15.696951],[79.475671,15.697543],[79.47517,15.697677],[79.474536,15.697859],[79.473942,15.697989]]]},"properties":{"lp":"55"}},{"type":"Feature","geometry":{"type":"Polygon","coordinates":[[[79.472685,15.696748],[79.472939,15.697355],[79.473254,15.698169],[79.472656,15.698372],[79.471504,15.698744],[79.471456,15.698759],[79.470624,15.697664],[79.470613,15.697402],[79.47112,15.697208],[79.471203,15.69718],[79.47267,15.696695],[79.472685,15.696748]]]},"properties":{"lp":"56"}},{"type":"Feature","geometry":{"type":"Polygon","coordinates":[[[79.469348,15.67874],[79.467795,15.679521],[79.467305,15.678375],[79.467463,15.678312],[79.467021,15.677214],[79.467633,15.677162],[79.468354,15.67714],[79.468833,15.677224],[79.468871,15.677672],[79.469348,15.67874]]]},"properties":{"lp":"140"}},{"type":"Feature","geometry":{"type":"Polygon","coordinates":[[[79.46775,15.680112],[79.466965,15.680427],[79.466577,15.679458],[79.466501,15.679482],[79.465581,15.677463],[79.466261,15.677251],[79.466425,15.677242],[79.467021,15.677214],[79.467463,15.678312],[79.467305,15.678375],[79.467795,15.679521],[79.468008,15.679985],[79.46775,15.680112]]]},"properties":{"lp":"141"}},{"type":"Feature","geometry":{"type":"Polygon","coordinates":[[[79.465903,15.680852],[79.465734,15.680923],[79.465291,15.679885],[79.465345,15.679837],[79.46518,15.679456],[79.464378,15.677472],[79.464724,15.677548],[79.465415,15.677544],[79.465581,15.677463],[79.466501,15.679482],[79.466577,15.679458],[79.466965,15.680427],[79.465903,15.680852]]]},"properties":{"lp":"142"}},{"type":"Feature","geometry":{"type":"Polygon","coordinates":[[[79.465345,15.679837],[79.465291,15.679885],[79.465734,15.680923],[79.46451,15.681486],[79.463529,15.681899],[79.463145,15.680739],[79.463085,15.680557],[79.463233,15.680515],[79.464367,15.680062],[79.464276,15.679811],[79.46518,15.679456],[79.465345,15.679837]]]},"properties":{"lp":"143"}},{"type":"Feature","geometry":{"type":"Polygon","coordinates":[[[79.464378,15.677472],[79.46518,15.679456],[79.464276,15.679811],[79.464367,15.680062],[79.463233,15.680515],[79.462925,15.679855],[79.464086,15.679428],[79.463734,15.678416],[79.463379,15.677335],[79.464378,15.677472]]]},"properties":{"lp":"144"}},{"type":"Feature","geometry":{"type":"Polygon","coordinates":[[[79.463379,15.677335],[79.463734,15.678416],[79.464086,15.679428],[79.462925,15.679855],[79.462708,15.679242],[79.462391,15.678378],[79.46247,15.678369],[79.462067,15.677335],[79.463196,15.677303],[79.463379,15.677335]]]},"properties":{"lp":"145"}},{"type":"Feature","geometry":{"type":"Polygon","coordinates":[[[79.462708,15.679242],[79.461356,15.679714],[79.460463,15.67741],[79.460786,15.677463],[79.461787,15.677339],[79.462067,15.677335],[79.46247,15.678369],[79.462391,15.678378],[79.462708,15.679242]]]},"properties":{"lp":"146"}},{"type":"Feature","geometry":{"type":"Polygon","coordinates":[[[79.461356,15.679714],[79.460349,15.680134],[79.459816,15.678974],[79.459139,15.677393],[79.459156,15.677355],[79.459168,15.677327],[79.460214,15.677171],[79.460362,15.677337],[79.460463,15.67741],[79.461356,15.679714]]]},"properties":{"lp":"147"}},{"type":"Feature","geometry":{"type":"Polygon","coordinates":[[[79.459816,15.678974],[79.458395,15.679324],[79.457894,15.677977],[79.457684,15.677189],[79.459139,15.677393],[79.459816,15.678974]]]},"properties":{"lp":"148"}},{"type":"Feature","geometry":{"type":"Polygon","coordinates":[[[79.460349,15.680134],[79.458868,15.680547],[79.458814,15.680555],[79.458395,15.679324],[79.459816,15.678974],[79.460349,15.680134]]]},"properties":{"lp":"149"}},{"type":"Feature","geometry":{"type":"Polygon","coordinates":[[[79.460873,15.681229],[79.460983,15.68154],[79.460122,15.681874],[79.460131,15.681919],[79.459459,15.682167],[79.458868,15.680547],[79.460349,15.680134],[79.460873,15.681229]]]},"properties":{"lp":"150"}},{"type":"Feature","geometry":{"type":"Polygon","coordinates":[[[79.461842,15.680939],[79.460873,15.681229],[79.460349,15.680134],[79.461356,15.679714],[79.462708,15.679242],[79.462925,15.679855],[79.463233,15.680515],[79.463085,15.680557],[79.463145,15.680739],[79.462266,15.681014],[79.462191,15.68083],[79.461842,15.680939]]]},"properties":{"lp":"151"}},{"type":"Feature","geometry":{"type":"Polygon","coordinates":[[[79.463529,15.681899],[79.463627,15.682151],[79.462515,15.682596],[79.461842,15.680939],[79.462191,15.68083],[79.462266,15.681014],[79.463145,15.680739],[79.463529,15.681899]]]},"properties":{"lp":"152"}},{"type":"Feature","geometry":{"type":"Polygon","coordinates":[[[79.462515,15.682596],[79.46132,15.68305],[79.461215,15.682713],[79.460983,15.68154],[79.460873,15.681229],[79.461842,15.680939],[79.462515,15.682596]]]},"properties":{"lp":"153"}},{"type":"Feature","geometry":{"type":"Polygon","coordinates":[[[79.465178,15.682969],[79.462567,15.683962],[79.461787,15.684248],[79.461611,15.683835],[79.46132,15.68305],[79.462515,15.682596],[79.463627,15.682151],[79.463529,15.681899],[79.46451,15.681486],[79.464678,15.68183],[79.465178,15.682969]]]},"properties":{"lp":"154"}},{"type":"Feature","geometry":{"type":"Polygon","coordinates":[[[79.466246,15.685166],[79.464433,15.685644],[79.461954,15.685268],[79.461897,15.685262],[79.461787,15.684248],[79.462567,15.683962],[79.465178,15.682969],[79.465233,15.682969],[79.465479,15.683769],[79.465585,15.684029],[79.466246,15.685166]]]},"properties":{"lp":"155"}},{"type":"Feature","geometry":{"type":"Polygon","coordinates":[[[79.461787,15.684248],[79.461897,15.685262],[79.461179,15.685177],[79.461001,15.6847],[79.460597,15.683612],[79.460384,15.682981],[79.461215,15.682713],[79.46132,15.68305],[79.461611,15.683835],[79.461787,15.684248]]]},"properties":{"lp":"156"}},{"type":"Feature","geometry":{"type":"Polygon","coordinates":[[[79.461215,15.682713],[79.460384,15.682981],[79.459506,15.683288],[79.45919,15.682526],[79.459541,15.682436],[79.459459,15.682167],[79.460131,15.681919],[79.460122,15.681874],[79.460983,15.68154],[79.461215,15.682713]]]},"properties":{"lp":"157"}},{"type":"Feature","geometry":{"type":"Polygon","coordinates":[[[79.460384,15.682981],[79.460597,15.683612],[79.461001,15.6847],[79.461179,15.685177],[79.460174,15.685082],[79.459646,15.683696],[79.459506,15.683288],[79.460384,15.682981]]]},"properties":{"lp":"158"}},{"type":"Feature","geometry":{"type":"Polygon","coordinates":[[[79.459506,15.683288],[79.459646,15.683696],[79.460174,15.685082],[79.459151,15.684991],[79.45864,15.683399],[79.458432,15.682719],[79.458561,15.682683],[79.45919,15.682526],[79.459506,15.683288]]]},"properties":{"lp":"159"}},{"type":"Feature","geometry":{"type":"Polygon","coordinates":[[[79.458432,15.682719],[79.45864,15.683399],[79.459151,15.684991],[79.459007,15.684944],[79.45818,15.684699],[79.45758,15.684733],[79.457105,15.683082],[79.457584,15.682971],[79.458432,15.682719]]]},"properties":{"lp":"160"}},{"type":"Feature","geometry":{"type":"Polygon","coordinates":[[[79.45758,15.684733],[79.455898,15.684829],[79.455313,15.684688],[79.455062,15.683683],[79.45607,15.683428],[79.456067,15.683384],[79.457105,15.683082],[79.45758,15.684733]]]},"properties":{"lp":"161"}},{"type":"Feature","geometry":{"type":"Polygon","coordinates":[[[79.457105,15.683082],[79.456067,15.683384],[79.455734,15.68222],[79.455543,15.681453],[79.456952,15.68104],[79.457584,15.682971],[79.457105,15.683082]]]},"properties":{"lp":"162"}},{"type":"Feature","geometry":{"type":"Polygon","coordinates":[[[79.458166,15.681565],[79.458561,15.682683],[79.458432,15.682719],[79.457584,15.682971],[79.456952,15.68104],[79.456926,15.680937],[79.457761,15.680745],[79.457898,15.680724],[79.458166,15.681565]]]},"properties":{"lp":"163"}},{"type":"Feature","geometry":{"type":"Polygon","coordinates":[[[79.478458,15.687694],[79.477539,15.688296],[79.475695,15.687807],[79.475656,15.687275],[79.475757,15.686895],[79.476849,15.685854],[79.47705,15.686171],[79.478056,15.687078],[79.478303,15.687472],[79.478458,15.687694]]]},"properties":{"lp":"65"}},{"type":"Feature","geometry":{"type":"Polygon","coordinates":[[[79.478458,15.687694],[79.478303,15.687472],[79.479841,15.686986],[79.479926,15.686959],[79.48042,15.687434],[79.480244,15.687378],[79.479879,15.687263],[79.478458,15.687694]]]},"properties":{"lp":"66"}},{"type":"Feature","geometry":{"type":"Polygon","coordinates":[[[79.479926,15.686959],[79.479841,15.686986],[79.478303,15.687472],[79.478056,15.687078],[79.47705,15.686171],[79.476849,15.685854],[79.477277,15.685707],[79.478161,15.685294],[79.479025,15.686018],[79.479234,15.685983],[79.479344,15.685964],[79.479926,15.686959]]]},"properties":{"lp":"67"}},{"type":"Feature","geometry":{"type":"Polygon","coordinates":[[[79.478116,15.683883],[79.478974,15.685352],[79.479344,15.685964],[79.479234,15.685983],[79.479025,15.686018],[79.478161,15.685294],[79.477489,15.684188],[79.476953,15.684052],[79.476768,15.683792],[79.476721,15.683659],[79.47661,15.683164],[79.476337,15.682584],[79.476179,15.682287],[79.476785,15.682071],[79.476913,15.682025],[79.477408,15.68303],[79.477847,15.682921],[79.478116,15.683883]]]},"properties":{"lp":"68"}},{"type":"Feature","geometry":{"type":"Polygon","coordinates":[[[79.478161,15.685294],[79.477277,15.685707],[79.476849,15.685854],[79.476562,15.685146],[79.476221,15.683989],[79.476768,15.683792],[79.476953,15.684052],[79.477489,15.684188],[79.478161,15.685294]]]},"properties":{"lp":"69"}},{"type":"Feature","geometry":{"type":"Polygon","coordinates":[[[79.469102,15.690507],[79.4689,15.690579],[79.468684,15.69009],[79.468516,15.689664],[79.4689,15.689491],[79.469637,15.689193],[79.469422,15.688779],[79.470492,15.688363],[79.470872,15.689228],[79.471052,15.689737],[79.470205,15.69006],[79.469102,15.690507]]]},"properties":{"lp":"84"}},{"type":"Feature","geometry":{"type":"Polygon","coordinates":[[[79.470492,15.688363],[79.469422,15.688779],[79.469637,15.689193],[79.4689,15.689491],[79.468516,15.689664],[79.467847,15.688056],[79.468993,15.687088],[79.469359,15.686835],[79.469708,15.686546],[79.469992,15.687162],[79.470205,15.687711],[79.470492,15.688363]]]},"properties":{"lp":"85"}},{"type":"Feature","geometry":{"type":"Polygon","coordinates":[[[79.468516,15.689664],[79.467189,15.690316],[79.467065,15.690355],[79.466777,15.689597],[79.466624,15.689055],[79.466785,15.688968],[79.467847,15.688056],[79.468516,15.689664]]]},"properties":{"lp":"86"}},{"type":"Feature","geometry":{"type":"Polygon","coordinates":[[[79.467189,15.690316],[79.467334,15.69076],[79.466,15.691297],[79.465813,15.690874],[79.465492,15.691005],[79.465467,15.691233],[79.465664,15.691689],[79.46526,15.691844],[79.464718,15.690701],[79.465011,15.690419],[79.465508,15.689976],[79.466624,15.689055],[79.466777,15.689597],[79.467065,15.690355],[79.467189,15.690316]]]},"properties":{"lp":"87"}},{"type":"Feature","geometry":{"type":"Polygon","coordinates":[[[79.469293,15.691031],[79.468292,15.691535],[79.467853,15.691779],[79.467567,15.69121],[79.466958,15.691481],[79.467162,15.692056],[79.466201,15.692434],[79.465664,15.691689],[79.465467,15.691233],[79.465492,15.691005],[79.465813,15.690874],[79.466,15.691297],[79.467334,15.69076],[79.467189,15.690316],[79.468516,15.689664],[79.468684,15.69009],[79.4689,15.690579],[79.469102,15.690507],[79.469293,15.691031]]]},"properties":{"lp":"88"}},{"type":"Feature","geometry":{"type":"Polygon","coordinates":[[[79.467599,15.69336],[79.466753,15.693682],[79.466532,15.693216],[79.466201,15.692434],[79.467162,15.692056],[79.467599,15.69336]]]},"properties":{"lp":"89"}},{"type":"Feature","geometry":{"type":"Polygon","coordinates":[[[79.4536,15.670841],[79.453945,15.671762],[79.451841,15.672405],[79.452027,15.671481],[79.452023,15.671467],[79.45205,15.671333],[79.451819,15.670745],[79.4518,15.670697],[79.451751,15.670573],[79.451536,15.669925],[79.452385,15.669673],[79.452636,15.669823],[79.452827,15.67001],[79.452795,15.670152],[79.453171,15.670039],[79.4536,15.670841]]]},"properties":{"lp":"178"}},{"type":"Feature","geometry":{"type":"Polygon","coordinates":[[[79.453392,15.669297],[79.452385,15.669673],[79.451536,15.669925],[79.451751,15.668702],[79.452108,15.668568],[79.452946,15.667476],[79.453271,15.668251],[79.453171,15.66829],[79.45316,15.668664],[79.453057,15.668705],[79.453132,15.668916],[79.453247,15.668874],[79.453392,15.669297]]]},"properties":{"lp":"179"}},{"type":"Feature","geometry":{"type":"Polygon","coordinates":[[[79.454355,15.668895],[79.453392,15.669297],[79.453247,15.668874],[79.453132,15.668916],[79.453057,15.668705],[79.45316,15.668664],[79.453171,15.66829],[79.453271,15.668251],[79.452946,15.667476],[79.453003,15.667404],[79.453367,15.666672],[79.453806,15.666537],[79.454392,15.667514],[79.454544,15.667768],[79.454636,15.668058],[79.454844,15.668746],[79.454355,15.668895]]]},"properties":{"lp":"180"}},{"type":"Feature","geometry":{"type":"Polygon","coordinates":[[[79.454934,15.668941],[79.454844,15.668746],[79.454636,15.668058],[79.455321,15.667802],[79.455595,15.667582],[79.455703,15.667629],[79.456519,15.667396],[79.456801,15.66733],[79.457161,15.667353],[79.45731,15.668221],[79.456993,15.668681],[79.45615,15.668731],[79.455922,15.668811],[79.455478,15.668812],[79.455447,15.668756],[79.454934,15.668941]]]},"properties":{"lp":"181"}},{"type":"Feature","geometry":{"type":"Polygon","coordinates":[[[79.455321,15.667802],[79.454636,15.668058],[79.454544,15.667768],[79.454392,15.667514],[79.453806,15.666537],[79.455165,15.666089],[79.455237,15.665935],[79.455818,15.665878],[79.456214,15.66705],[79.456284,15.66705],[79.456519,15.667396],[79.455703,15.667629],[79.455595,15.667582],[79.455321,15.667802]]]},"properties":{"lp":"182"}},{"type":"Feature","geometry":{"type":"Polygon","coordinates":[[[79.457739,15.667355],[79.457948,15.668083],[79.457429,15.668215],[79.45731,15.668221],[79.457161,15.667353],[79.456801,15.66733],[79.456519,15.667396],[79.456284,15.66705],[79.456214,15.66705],[79.455818,15.665878],[79.456639,15.665807],[79.456823,15.665829],[79.457434,15.665902],[79.457718,15.665935],[79.457818,15.667079],[79.457816,15.667162],[79.457739,15.667355]]]},"properties":{"lp":"183"}},{"type":"Feature","geometry":{"type":"Polygon","coordinates":[[[79.459848,15.66954],[79.458893,15.669545],[79.458738,15.669095],[79.457589,15.669249],[79.457417,15.66911],[79.457429,15.668215],[79.457948,15.668083],[79.458047,15.668225],[79.459255,15.667858],[79.459358,15.66808],[79.459848,15.66954]]]},"properties":{"lp":"184"}},{"type":"Feature","geometry":{"type":"Polygon","coordinates":[[[79.458893,15.669545],[79.458488,15.670399],[79.458575,15.670891],[79.458254,15.670975],[79.458364,15.671342],[79.457117,15.67173],[79.457085,15.670717],[79.457417,15.66911],[79.457589,15.669249],[79.458738,15.669095],[79.458893,15.669545]]]},"properties":{"lp":"185"}},{"type":"Feature","geometry":{"type":"Polygon","coordinates":[[[79.455358,15.672956],[79.455825,15.674242],[79.455039,15.674489],[79.454349,15.674727],[79.454028,15.672384],[79.453945,15.671762],[79.4536,15.670841],[79.453171,15.670039],[79.452795,15.670152],[79.452827,15.67001],[79.452636,15.669823],[79.452385,15.669673],[79.453392,15.669297],[79.454355,15.668895],[79.454844,15.668746],[79.454934,15.668941],[79.455447,15.668756],[79.455478,15.668812],[79.455922,15.668811],[79.45615,15.668731],[79.456993,15.668681],[79.45731,15.668221],[79.457429,15.668215],[79.457417,15.66911],[79.457085,15.670717],[79.457117,15.67173],[79.457164,15.672487],[79.45677,15.67263],[79.456726,15.672482],[79.455358,15.672956]]]},"properties":{"lp":"186"}},{"type":"Feature","geometry":{"type":"Polygon","coordinates":[[[79.45677,15.67263],[79.457347,15.674119],[79.455982,15.674553],[79.455825,15.674242],[79.455358,15.672956],[79.456726,15.672482],[79.45677,15.67263]]]},"properties":{"lp":"187"}},{"type":"Feature","geometry":{"type":"Polygon","coordinates":[[[79.458364,15.671342],[79.458821,15.672811],[79.457752,15.673107],[79.45812,15.674191],[79.457535,15.674398],[79.457487,15.674125],[79.457347,15.674119],[79.45677,15.67263],[79.457164,15.672487],[79.457117,15.67173],[79.458364,15.671342]]]},"properties":{"lp":"188"}},{"type":"Feature","geometry":{"type":"Polygon","coordinates":[[[79.458821,15.672811],[79.458926,15.672823],[79.459017,15.673007],[79.459377,15.673963],[79.459268,15.674028],[79.45958,15.674985],[79.459404,15.675062],[79.459539,15.675462],[79.458317,15.675889],[79.458175,15.675688],[79.457535,15.674398],[79.45812,15.674191],[79.457752,15.673107],[79.458821,15.672811]]]},"properties":{"lp":"189"}},{"type":"Feature","geometry":{"type":"Polygon","coordinates":[[[79.457487,15.674125],[79.457535,15.674398],[79.458175,15.675688],[79.456138,15.676226],[79.455896,15.67526],[79.455722,15.674647],[79.455982,15.674553],[79.457347,15.674119],[79.457487,15.674125]]]},"properties":{"lp":"190"}},{"type":"Feature","geometry":{"type":"Polygon","coordinates":[[[79.462705,15.68793],[79.459751,15.688723],[79.459357,15.687775],[79.460538,15.687408],[79.461284,15.687202],[79.462349,15.686891],[79.462705,15.68793]]]},"properties":{"lp":"106"}},{"type":"Feature","geometry":{"type":"Polygon","coordinates":[[[79.459357,15.687775],[79.459751,15.688723],[79.458014,15.689361],[79.457591,15.688541],[79.457377,15.688151],[79.458341,15.687757],[79.459192,15.687438],[79.459357,15.687775]]]},"properties":{"lp":"107"}},{"type":"Feature","geometry":{"type":"Polygon","coordinates":[[[79.458341,15.687757],[79.457377,15.688151],[79.457332,15.68813],[79.456581,15.687117],[79.457367,15.686752],[79.457737,15.686629],[79.458723,15.686274],[79.458905,15.686802],[79.459485,15.686658],[79.460975,15.686242],[79.461284,15.687202],[79.460538,15.687408],[79.459357,15.687775],[79.459192,15.687438],[79.458341,15.687757]]]},"properties":{"lp":"108"}}]}