{"type":"FeatureCollection","village":"MADALAVARIPALEM","features":[{"type":"Feature","geometry":{"type":"Polygon","coordinates":[[[79.592139,15.614976],[79.592716,15.615574],[79.593059,15.61614],[79.593432,15.616684],[79.593871,15.617357],[79.593733,15.617417],[79.593661,15.617448],[79.593444,15.617079],[79.592869,15.616415],[79.592354,15.615709],[79.591978,15.615197],[79.591711,15.61501],[79.59202,15.614847],[79.592139,15.614976]]]},"properties":{"lp":"28"}},{"type":"Feature","geometry":{"type":"Polygon","coordinates":[[[79.594287,15.618201],[79.594862,15.619364],[79.594392,15.618948],[79.594053,15.618247],[79.593661,15.617448],[79.593733,15.617417],[79.593871,15.617357],[79.594287,15.618201]]]},"properties":{"lp":"26"}},{"type":"Feature","geometry":{"type":"Polygon","coordinates":[[[79.594862,15.619364],[79.59526,15.62022],[79.595577,15.620892],[79.596005,15.621294],[79.595891,15.621421],[79.59578,15.62149],[79.595264,15.620763],[79.594756,15.620021],[79.594392,15.618948],[79.594862,15.619364]]]},"properties":{"lp":"25"}},{"type":"Feature","geometry":{"type":"Polygon","coordinates":[[[79.594506,15.62255],[79.593872,15.622767],[79.593707,15.622736],[79.593658,15.622321],[79.594332,15.622165],[79.594295,15.621937],[79.59578,15.62149],[79.595959,15.621788],[79.595921,15.622035],[79.594506,15.62255]]]},"properties":{"lp":"22"}},{"type":"Feature","geometry":{"type":"Polygon","coordinates":[[[79.590978,15.623573],[79.590905,15.624024],[79.590591,15.624312],[79.590368,15.624282],[79.59022,15.623534],[79.589938,15.623555],[79.589799,15.622712],[79.590037,15.622663],[79.590146,15.622424],[79.590603,15.622586],[79.591477,15.622573],[79.591989,15.622706],[79.590978,15.623573]]]},"properties":{"lp":"3"}},{"type":"Feature","geometry":{"type":"Polygon","coordinates":[[[79.593145,15.625279],[79.592959,15.626137],[79.592809,15.626671],[79.592872,15.62763],[79.592817,15.628051],[79.592703,15.628382],[79.592342,15.628442],[79.59213,15.628596],[79.591957,15.628589],[79.591758,15.628156],[79.591213,15.62697],[79.590761,15.625946],[79.590634,15.625354],[79.591207,15.625332],[79.592161,15.625027],[79.592864,15.624882],[79.592863,15.625068],[79.593161,15.625043],[79.593145,15.625279]]]},"properties":{"lp":"1"}},{"type":"Feature","geometry":{"type":"Polygon","coordinates":[[[79.592161,15.625027],[79.591207,15.625332],[79.590634,15.625354],[79.590368,15.624282],[79.590591,15.624312],[79.590905,15.624024],[79.590978,15.623573],[79.591989,15.622706],[79.59213,15.622497],[79.592961,15.622634],[79.592971,15.623406],[79.5936,15.623278],[79.593667,15.623527],[79.593161,15.625043],[79.592863,15.625068],[79.592864,15.624882],[79.592161,15.625027]]]},"properties":{"lp":"4"}},{"type":"Feature","geometry":{"type":"Polygon","coordinates":[[[79.588187,15.623098],[79.587898,15.622812],[79.588278,15.623],[79.588888,15.622682],[79.589907,15.622616],[79.590095,15.622342],[79.590511,15.622228],[79.590603,15.622586],[79.590146,15.622424],[79.590037,15.622663],[79.589799,15.622712],[79.589367,15.622815],[79.588187,15.623098]]]},"properties":{"lp":"8"}},{"type":"Feature","geometry":{"type":"Polygon","coordinates":[[[79.590057,15.620908],[79.590192,15.621337],[79.58924,15.6215],[79.587565,15.621785],[79.587402,15.621656],[79.587456,15.621195],[79.588688,15.620972],[79.588662,15.620808],[79.589374,15.620614],[79.589833,15.620322],[79.590057,15.620908]]]},"properties":{"lp":"12"}},{"type":"Feature","geometry":{"type":"Polygon","coordinates":[[[79.590511,15.622228],[79.590095,15.622342],[79.589907,15.622616],[79.588888,15.622682],[79.588278,15.623],[79.587898,15.622812],[79.587565,15.621785],[79.58924,15.6215],[79.590192,15.621337],[79.590252,15.621327],[79.590511,15.622228]]]},"properties":{"lp":"7"}},{"type":"Feature","geometry":{"type":"Polygon","coordinates":[[[79.568299,15.619813],[79.567542,15.62032],[79.56596,15.620839],[79.565597,15.619257],[79.566894,15.618228],[79.568119,15.61791],[79.568299,15.619813]]]},"properties":{"lp":"99"}},{"type":"Feature","geometry":{"type":"Polygon","coordinates":[[[79.586301,15.616768],[79.585297,15.616958],[79.584177,15.617123],[79.583525,15.617211],[79.583728,15.61684],[79.584125,15.616276],[79.584578,15.615677],[79.585278,15.615589],[79.586106,15.61549],[79.586301,15.616768]]]},"properties":{"lp":"63"}},{"type":"Feature","geometry":{"type":"Polygon","coordinates":[[[79.586106,15.61549],[79.585278,15.615589],[79.584578,15.615677],[79.584246,15.614548],[79.584655,15.614401],[79.585262,15.614167],[79.585619,15.614124],[79.585962,15.614096],[79.586106,15.61549]]]},"properties":{"lp":"64"}},{"type":"Feature","geometry":{"type":"Polygon","coordinates":[[[79.582644,15.614972],[79.582057,15.61506],[79.581022,15.615245],[79.581081,15.614373],[79.581349,15.614314],[79.58215,15.614066],[79.582753,15.61395],[79.584071,15.61377],[79.584079,15.614303],[79.584246,15.614548],[79.582644,15.614972]]]},"properties":{"lp":"58"}},{"type":"Feature","geometry":{"type":"Polygon","coordinates":[[[79.585619,15.614124],[79.585262,15.614167],[79.584655,15.614401],[79.584246,15.614548],[79.584079,15.614303],[79.584071,15.61377],[79.584156,15.613436],[79.584823,15.613522],[79.585449,15.613234],[79.58612,15.612935],[79.585885,15.613536],[79.585619,15.614124]]]},"properties":{"lp":"59"}},{"type":"Feature","geometry":{"type":"Polygon","coordinates":[[[79.584071,15.61377],[79.582753,15.61395],[79.58215,15.614066],[79.581349,15.614314],[79.581081,15.614373],[79.581057,15.614281],[79.580898,15.613683],[79.581419,15.612989],[79.582556,15.612487],[79.58351,15.612064],[79.584494,15.611609],[79.584613,15.611598],[79.584245,15.612298],[79.584156,15.613436],[79.584071,15.61377]]]},"properties":{"lp":"57"}},{"type":"Feature","geometry":{"type":"Polygon","coordinates":[[[79.581419,15.612989],[79.580898,15.613683],[79.580761,15.613657],[79.580434,15.613594],[79.580252,15.613508],[79.580583,15.613199],[79.580738,15.613066],[79.581334,15.612849],[79.581419,15.612989]]]},"properties":{"lp":"54"}},{"type":"Feature","geometry":{"type":"Polygon","coordinates":[[[79.584494,15.611609],[79.58351,15.612064],[79.582556,15.612487],[79.581419,15.612989],[79.581334,15.612849],[79.582363,15.612362],[79.583034,15.612038],[79.584055,15.611538],[79.584494,15.611609]]]},"properties":{"lp":"55"}},{"type":"Feature","geometry":{"type":"Polygon","coordinates":[[[79.584055,15.611538],[79.583034,15.612038],[79.582363,15.612362],[79.581334,15.612849],[79.580738,15.613066],[79.580665,15.611958],[79.580766,15.611772],[79.581886,15.611351],[79.582263,15.611497],[79.583342,15.611024],[79.583468,15.611126],[79.583857,15.611],[79.584055,15.611538]]]},"properties":{"lp":"53"}},{"type":"Feature","geometry":{"type":"Polygon","coordinates":[[[79.582242,15.609699],[79.582238,15.609797],[79.582233,15.609915],[79.582221,15.610167],[79.582111,15.610167],[79.582039,15.610287],[79.581678,15.611013],[79.581886,15.611351],[79.580766,15.611772],[79.580665,15.611958],[79.580738,15.613066],[79.580583,15.613199],[79.580252,15.613508],[79.580059,15.613323],[79.579699,15.613005],[79.579649,15.612959],[79.580173,15.612597],[79.580774,15.611585],[79.581137,15.611283],[79.581623,15.610835],[79.581714,15.610672],[79.582146,15.609711],[79.58223,15.609608],[79.582242,15.609699]]]},"properties":{"lp":"52"}},{"type":"Feature","geometry":{"type":"Polygon","coordinates":[[[79.583857,15.611],[79.583468,15.611126],[79.583342,15.611024],[79.582263,15.611497],[79.581886,15.611351],[79.581678,15.611013],[79.582039,15.610287],[79.582111,15.610167],[79.582221,15.610167],[79.582233,15.609915],[79.582381,15.609632],[79.582561,15.609545],[79.583294,15.609665],[79.58387,15.609956],[79.583815,15.61041],[79.583937,15.610639],[79.583857,15.611]]]},"properties":{"lp":"51"}},{"type":"Feature","geometry":{"type":"Polygon","coordinates":[[[79.584642,15.610111],[79.585207,15.610273],[79.585659,15.610477],[79.585643,15.610854],[79.585728,15.610929],[79.585627,15.611125],[79.58505,15.611285],[79.584055,15.611538],[79.583857,15.611],[79.583937,15.610639],[79.583815,15.61041],[79.58387,15.609956],[79.584074,15.60994],[79.584642,15.610111]]]},"properties":{"lp":"50"}},{"type":"Feature","geometry":{"type":"Polygon","coordinates":[[[79.586302,15.611388],[79.585737,15.611451],[79.584613,15.611598],[79.584494,15.611609],[79.584055,15.611538],[79.58505,15.611285],[79.585627,15.611125],[79.586302,15.611388]]]},"properties":{"lp":"56"}},{"type":"Feature","geometry":{"type":"Polygon","coordinates":[[[79.584074,15.60994],[79.58387,15.609956],[79.583294,15.609665],[79.583516,15.609226],[79.584245,15.60921],[79.584372,15.609857],[79.584074,15.60994]]]},"properties":{"lp":"46"}},{"type":"Feature","geometry":{"type":"Polygon","coordinates":[[[79.582381,15.609632],[79.582233,15.609915],[79.582238,15.609797],[79.582242,15.609699],[79.58223,15.609608],[79.582522,15.60931],[79.582841,15.60927],[79.583034,15.609242],[79.583207,15.609046],[79.58376,15.608407],[79.583898,15.608254],[79.58401,15.608157],[79.584131,15.608076],[79.584318,15.60796],[79.583727,15.608719],[79.583516,15.609226],[79.583294,15.609665],[79.582561,15.609545],[79.582381,15.609632]]]},"properties":{"lp":"45"}},{"type":"Feature","geometry":{"type":"Polygon","coordinates":[[[79.585033,15.60854],[79.584541,15.608742],[79.584245,15.60921],[79.583516,15.609226],[79.583727,15.608719],[79.584318,15.60796],[79.584436,15.607718],[79.584412,15.607465],[79.584717,15.607194],[79.584763,15.607117],[79.584815,15.607037],[79.584952,15.606839],[79.585176,15.606928],[79.585075,15.607084],[79.585058,15.607154],[79.584937,15.607631],[79.585304,15.607822],[79.585568,15.607933],[79.58558,15.608398],[79.585227,15.608365],[79.585033,15.60854]]]},"properties":{"lp":"44"}},{"type":"Feature","geometry":{"type":"Polygon","coordinates":[[[79.58558,15.608398],[79.585867,15.608449],[79.585746,15.609339],[79.585703,15.609517],[79.585583,15.610217],[79.585759,15.610267],[79.585659,15.610477],[79.585207,15.610273],[79.584642,15.610111],[79.584074,15.60994],[79.584372,15.609857],[79.584245,15.60921],[79.584541,15.608742],[79.585033,15.60854],[79.585227,15.608365],[79.58558,15.608398]]]},"properties":{"lp":"47"}},{"type":"Feature","geometry":{"type":"Polygon","coordinates":[[[79.586831,15.608272],[79.586967,15.608605],[79.586841,15.608932],[79.586793,15.609805],[79.586662,15.610116],[79.586397,15.610276],[79.585759,15.610267],[79.585583,15.610217],[79.585703,15.609517],[79.585746,15.609339],[79.585867,15.608449],[79.586202,15.608249],[79.586831,15.608272]]]},"properties":{"lp":"48"}},{"type":"Feature","geometry":{"type":"Polygon","coordinates":[[[79.586688,15.61034],[79.586728,15.610952],[79.58719,15.611274],[79.586302,15.611388],[79.585627,15.611125],[79.585728,15.610929],[79.585643,15.610854],[79.585659,15.610477],[79.585759,15.610267],[79.586397,15.610276],[79.586662,15.610116],[79.586688,15.61034]]]},"properties":{"lp":"49"}},{"type":"Feature","geometry":{"type":"Polygon","coordinates":[[[79.586947,15.606546],[79.587773,15.606767],[79.587977,15.606874],[79.588065,15.606929],[79.58802,15.607628],[79.58769,15.607598],[79.587329,15.607508],[79.586449,15.607295],[79.585707,15.606868],[79.585737,15.606768],[79.585484,15.606722],[79.585444,15.606621],[79.585455,15.60654],[79.58556,15.606427],[79.586109,15.606321],[79.586947,15.606546]]]},"properties":{"lp":"43"}},{"type":"Feature","geometry":{"type":"Polygon","coordinates":[[[79.59233,15.621389],[79.592655,15.622337],[79.591775,15.622353],[79.590511,15.622228],[79.590252,15.621327],[79.590192,15.621337],[79.590057,15.620908],[79.59203,15.620559],[79.59233,15.621389]]]},"properties":{"lp":"6"}},{"type":"Feature","geometry":{"type":"Polygon","coordinates":[[[79.593349,15.62142],[79.592966,15.621547],[79.59323,15.622341],[79.592655,15.622337],[79.59233,15.621389],[79.59203,15.620559],[79.591942,15.620255],[79.592028,15.62006],[79.592795,15.619917],[79.593349,15.62142]]]},"properties":{"lp":"5"}},{"type":"Feature","geometry":{"type":"Polygon","coordinates":[[[79.589521,15.619424],[79.589833,15.620322],[79.589374,15.620614],[79.588662,15.620808],[79.588558,15.620164],[79.588429,15.619202],[79.589412,15.618972],[79.589521,15.619424]]]},"properties":{"lp":"13"}},{"type":"Feature","geometry":{"type":"Polygon","coordinates":[[[79.588585,15.608345],[79.588528,15.608592],[79.588189,15.608965],[79.588065,15.608963],[79.586999,15.608941],[79.586841,15.608932],[79.586967,15.608605],[79.586831,15.608272],[79.586202,15.608249],[79.585867,15.608449],[79.58558,15.608398],[79.585568,15.607933],[79.585304,15.607822],[79.584937,15.607631],[79.585058,15.607154],[79.585075,15.607084],[79.585176,15.606928],[79.585305,15.606842],[79.585382,15.606787],[79.585484,15.606722],[79.585737,15.606768],[79.585707,15.606868],[79.586449,15.607295],[79.587329,15.607508],[79.58769,15.607598],[79.58802,15.607628],[79.588065,15.606929],[79.5881,15.606773],[79.588112,15.606699],[79.588131,15.60664],[79.588807,15.606751],[79.58881,15.606928],[79.588807,15.607079],[79.588782,15.607494],[79.58862,15.608192],[79.588585,15.608345]]]},"properties":{"lp":"42"}},{"type":"Feature","geometry":{"type":"Polygon","coordinates":[[[79.568598,15.622511],[79.568665,15.622841],[79.568896,15.623899],[79.568083,15.62407],[79.568142,15.624307],[79.567809,15.624413],[79.567009,15.624543],[79.565807,15.624748],[79.565068,15.62496],[79.564952,15.624955],[79.564868,15.624822],[79.564333,15.623988],[79.564296,15.623929],[79.564001,15.623378],[79.564143,15.623294],[79.56564,15.622314],[79.565988,15.622124],[79.566725,15.621746],[79.5673,15.621454],[79.568222,15.621005],[79.568598,15.622511]]]},"properties":{"lp":"116"}},{"type":"Feature","geometry":{"type":"Polygon","coordinates":[[[79.5673,15.621454],[79.566725,15.621746],[79.565988,15.622124],[79.56564,15.622314],[79.565538,15.622114],[79.566156,15.6218],[79.567057,15.621294],[79.567187,15.621248],[79.5673,15.621454]]]},"properties":{"lp":"118"}},{"type":"Feature","geometry":{"type":"Polygon","coordinates":[[[79.564143,15.623294],[79.564001,15.623378],[79.56396,15.623292],[79.563926,15.623228],[79.563888,15.62314],[79.563848,15.623027],[79.564143,15.622869],[79.564113,15.622505],[79.564586,15.622409],[79.564758,15.622539],[79.565538,15.622114],[79.56564,15.622314],[79.564143,15.623294]]]},"properties":{"lp":"117"}},{"type":"Feature","geometry":{"type":"Polygon","coordinates":[[[79.564113,15.622505],[79.564143,15.622869],[79.563848,15.623027],[79.56374,15.622753],[79.563663,15.622562],[79.563454,15.621948],[79.563316,15.621533],[79.563439,15.62151],[79.564163,15.621143],[79.564517,15.620452],[79.564359,15.619872],[79.565048,15.619657],[79.565597,15.619257],[79.56596,15.620839],[79.566156,15.6218],[79.565538,15.622114],[79.564758,15.622539],[79.564586,15.622409],[79.564113,15.622505]]]},"properties":{"lp":"120"}},{"type":"Feature","geometry":{"type":"Polygon","coordinates":[[[79.567187,15.621248],[79.567057,15.621294],[79.566156,15.6218],[79.56596,15.620839],[79.567542,15.62032],[79.567968,15.620327],[79.568192,15.62079],[79.567187,15.621248]]]},"properties":{"lp":"119"}},{"type":"Feature","geometry":{"type":"Polygon","coordinates":[[[79.580246,15.620196],[79.580419,15.62103],[79.580593,15.622044],[79.580044,15.62212],[79.579835,15.622152],[79.57942,15.622103],[79.579302,15.621832],[79.578949,15.620374],[79.579431,15.620308],[79.579854,15.619877],[79.580246,15.620196]]]},"properties":{"lp":"78"}},{"type":"Feature","geometry":{"type":"Polygon","coordinates":[[[79.593872,15.613367],[79.593816,15.613518],[79.592996,15.61388],[79.592211,15.613738],[79.591735,15.613048],[79.591855,15.612724],[79.592881,15.612691],[79.593132,15.612682],[79.593365,15.612682],[79.594126,15.612687],[79.594224,15.612778],[79.594361,15.613071],[79.594528,15.613062],[79.594661,15.613185],[79.594333,15.613135],[79.593872,15.613367]]]},"properties":{"lp":"31"}},{"type":"Feature","geometry":{"type":"Polygon","coordinates":[[[79.568898,15.620436],[79.568192,15.62079],[79.567968,15.620327],[79.567542,15.62032],[79.568299,15.619813],[79.569367,15.619556],[79.569491,15.620129],[79.568898,15.620436]]]},"properties":{"lp":"100"}},{"type":"Feature","geometry":{"type":"Polygon","coordinates":[[[79.569462,15.619522],[79.569367,15.619556],[79.568299,15.619813],[79.568119,15.61791],[79.569222,15.617613],[79.569462,15.619522]]]},"properties":{"lp":"98"}},{"type":"Feature","geometry":{"type":"Polygon","coordinates":[[[79.589151,15.608733],[79.589311,15.608787],[79.590212,15.60953],[79.589156,15.609643],[79.588766,15.60969],[79.588095,15.609723],[79.588025,15.609622],[79.588098,15.609179],[79.588189,15.608965],[79.588528,15.608592],[79.589151,15.608733]]]},"properties":{"lp":"41"}},{"type":"Feature","geometry":{"type":"Polygon","coordinates":[[[79.589757,15.610116],[79.58974,15.611167],[79.589119,15.611155],[79.589065,15.610772],[79.588868,15.610718],[79.588774,15.609774],[79.588766,15.60969],[79.589156,15.609643],[79.590212,15.60953],[79.590239,15.609619],[79.59038,15.610075],[79.590073,15.610052],[79.589757,15.610116]]]},"properties":{"lp":"40"}},{"type":"Feature","geometry":{"type":"Polygon","coordinates":[[[79.590717,15.611409],[79.590259,15.611515],[79.58976,15.61161],[79.58974,15.611167],[79.589757,15.610116],[79.590073,15.610052],[79.59038,15.610075],[79.590675,15.610801],[79.590717,15.611409]]]},"properties":{"lp":"39"}},{"type":"Feature","geometry":{"type":"Polygon","coordinates":[[[79.591369,15.612779],[79.590746,15.612942],[79.590382,15.612863],[79.590078,15.612697],[79.58977,15.612518],[79.589604,15.6123],[79.589915,15.611846],[79.58976,15.61161],[79.590259,15.611515],[79.590717,15.611409],[79.591214,15.611762],[79.591369,15.612779]]]},"properties":{"lp":"38"}},{"type":"Feature","geometry":{"type":"Polygon","coordinates":[[[79.589235,15.61335],[79.588818,15.613316],[79.588443,15.613098],[79.588423,15.61269],[79.588025,15.612843],[79.587753,15.612832],[79.587757,15.612063],[79.587444,15.611376],[79.58719,15.611274],[79.586728,15.610952],[79.586688,15.61034],[79.586662,15.610116],[79.586793,15.609805],[79.586841,15.608932],[79.586999,15.608941],[79.588065,15.608963],[79.588189,15.608965],[79.588098,15.609179],[79.588025,15.609622],[79.588095,15.609723],[79.588766,15.60969],[79.588774,15.609774],[79.588868,15.610718],[79.589065,15.610772],[79.589119,15.611155],[79.58974,15.611167],[79.58976,15.61161],[79.589915,15.611846],[79.589604,15.6123],[79.58977,15.612518],[79.590078,15.612697],[79.590382,15.612863],[79.590746,15.612942],[79.590198,15.613323],[79.589939,15.613101],[79.589322,15.613053],[79.589235,15.61335]]]},"properties":{"lp":"37"}},{"type":"Feature","geometry":{"type":"Polygon","coordinates":[[[79.591735,15.613048],[79.592211,15.613738],[79.592609,15.61458],[79.59202,15.614847],[79.591214,15.613994],[79.590847,15.613614],[79.590923,15.613429],[79.590746,15.612942],[79.591369,15.612779],[79.59172,15.612738],[79.591855,15.612724],[79.591735,15.613048]]]},"properties":{"lp":"32"}},{"type":"Feature","geometry":{"type":"Polygon","coordinates":[[[79.590923,15.613429],[79.590847,15.613614],[79.591214,15.613994],[79.59202,15.614847],[79.591711,15.61501],[79.591122,15.614398],[79.590516,15.613767],[79.590198,15.613323],[79.590746,15.612942],[79.590923,15.613429]]]},"properties":{"lp":"33"}},{"type":"Feature","geometry":{"type":"Polygon","coordinates":[[[79.589586,15.615295],[79.589459,15.615464],[79.589535,15.615663],[79.588741,15.615572],[79.589063,15.61485],[79.588819,15.613645],[79.588818,15.613316],[79.589235,15.61335],[79.589322,15.613053],[79.589939,15.613101],[79.590198,15.613323],[79.590516,15.613767],[79.590204,15.61441],[79.589896,15.61502],[79.589586,15.615295]]]},"properties":{"lp":"35"}},{"type":"Feature","geometry":{"type":"Polygon","coordinates":[[[79.588741,15.615572],[79.587285,15.615792],[79.587151,15.615812],[79.587382,15.615026],[79.587458,15.614765],[79.587496,15.613743],[79.587753,15.612832],[79.588025,15.612843],[79.588423,15.61269],[79.588443,15.613098],[79.588818,15.613316],[79.588819,15.613645],[79.589063,15.61485],[79.588741,15.615572]]]},"properties":{"lp":"36"}},{"type":"Feature","geometry":{"type":"Polygon","coordinates":[[[79.58612,15.612935],[79.585449,15.613234],[79.584823,15.613522],[79.584156,15.613436],[79.584245,15.612298],[79.584613,15.611598],[79.585737,15.611451],[79.586302,15.611388],[79.58612,15.612935]]]},"properties":{"lp":"60"}},{"type":"Feature","geometry":{"type":"Polygon","coordinates":[[[79.585962,15.614096],[79.585619,15.614124],[79.585885,15.613536],[79.58612,15.612935],[79.586302,15.611388],[79.58719,15.611274],[79.587444,15.611376],[79.587757,15.612063],[79.587753,15.612832],[79.587496,15.613743],[79.586543,15.61397],[79.585962,15.614096]]]},"properties":{"lp":"61"}},{"type":"Feature","geometry":{"type":"Polygon","coordinates":[[[79.596576,15.613862],[79.594717,15.61415],[79.594715,15.614174],[79.594266,15.614216],[79.593816,15.613518],[79.593872,15.613367],[79.594333,15.613135],[79.594661,15.613185],[79.595009,15.613128],[79.595678,15.613024],[79.596455,15.613102],[79.596576,15.613862]]]},"properties":{"lp":"30"}},{"type":"Feature","geometry":{"type":"Polygon","coordinates":[[[79.593871,15.617357],[79.593432,15.616684],[79.593059,15.61614],[79.592716,15.615574],[79.592139,15.614976],[79.59202,15.614847],[79.592609,15.61458],[79.592211,15.613738],[79.592996,15.61388],[79.593816,15.613518],[79.594266,15.614216],[79.594715,15.614174],[79.594734,15.615782],[79.594503,15.616005],[79.594728,15.617117],[79.594631,15.617273],[79.594337,15.617154],[79.593871,15.617357]]]},"properties":{"lp":"29"}},{"type":"Feature","geometry":{"type":"Polygon","coordinates":[[[79.596558,15.617523],[79.596557,15.617782],[79.596457,15.618384],[79.596449,15.618645],[79.596412,15.61886],[79.595695,15.619087],[79.594862,15.619364],[79.594287,15.618201],[79.593871,15.617357],[79.594337,15.617154],[79.594631,15.617273],[79.594728,15.617117],[79.596558,15.617523]]]},"properties":{"lp":"27"}},{"type":"Feature","geometry":{"type":"Polygon","coordinates":[[[79.598357,15.619575],[79.598359,15.619665],[79.598308,15.619975],[79.597505,15.620667],[79.597385,15.621223],[79.59693,15.621424],[79.596796,15.621393],[79.596641,15.621269],[79.596614,15.621188],[79.596596,15.621115],[79.596577,15.620454],[79.596494,15.619663],[79.597326,15.619513],[79.598208,15.619539],[79.598357,15.619575]]]},"properties":{"lp":"23"}},{"type":"Feature","geometry":{"type":"Polygon","coordinates":[[[79.596367,15.619523],[79.596494,15.619663],[79.596577,15.620454],[79.596596,15.621115],[79.596395,15.621192],[79.596092,15.621197],[79.596005,15.621294],[79.595577,15.620892],[79.59526,15.62022],[79.594862,15.619364],[79.595695,15.619087],[79.596412,15.61886],[79.596367,15.619523]]]},"properties":{"lp":"24"}},{"type":"Feature","geometry":{"type":"Polygon","coordinates":[[[79.580434,15.613594],[79.580761,15.613657],[79.580898,15.613683],[79.581057,15.614281],[79.581081,15.614373],[79.581022,15.615245],[79.580354,15.615099],[79.580238,15.615047],[79.579997,15.614939],[79.579818,15.61481],[79.57971,15.614178],[79.579707,15.614084],[79.58007,15.613871],[79.580252,15.613508],[79.580434,15.613594]]]},"properties":{"lp":"90"}},{"type":"Feature","geometry":{"type":"Polygon","coordinates":[[[79.59203,15.620559],[79.590057,15.620908],[79.589833,15.620322],[79.589521,15.619424],[79.589412,15.618972],[79.589262,15.618411],[79.589028,15.617471],[79.590145,15.617309],[79.590242,15.617956],[79.591404,15.617716],[79.591149,15.616723],[79.591946,15.616588],[79.592869,15.616415],[79.593444,15.617079],[79.592358,15.617368],[79.592598,15.618415],[79.592952,15.619875],[79.592795,15.619917],[79.592028,15.62006],[79.591942,15.620255],[79.59203,15.620559]]]},"properties":{"lp":"19"}},{"type":"Feature","geometry":{"type":"Polygon","coordinates":[[[79.58086,15.622224],[79.580978,15.6242],[79.580337,15.62427],[79.57953,15.624339],[79.578171,15.624587],[79.577891,15.624636],[79.577814,15.623907],[79.577675,15.622099],[79.577811,15.622068],[79.579302,15.621832],[79.57942,15.622103],[79.579835,15.622152],[79.580044,15.62212],[79.580593,15.622044],[79.580851,15.622013],[79.58086,15.622224]]]},"properties":{"lp":"77"}},{"type":"Feature","geometry":{"type":"Polygon","coordinates":[[[79.585047,15.623699],[79.584972,15.624394],[79.584583,15.624432],[79.583729,15.624603],[79.583245,15.62474],[79.58303,15.624784],[79.582022,15.624685],[79.580978,15.6242],[79.58086,15.622224],[79.582345,15.622016],[79.582457,15.622692],[79.584642,15.622375],[79.585047,15.623699]]]},"properties":{"lp":"72"}},{"type":"Feature","geometry":{"type":"Polygon","coordinates":[[[79.586587,15.622621],[79.586611,15.622916],[79.586904,15.62397],[79.585937,15.624171],[79.584972,15.624394],[79.585047,15.623699],[79.584642,15.622375],[79.585104,15.622237],[79.586173,15.621982],[79.586579,15.621825],[79.586587,15.622621]]]},"properties":{"lp":"71"}},{"type":"Feature","geometry":{"type":"Polygon","coordinates":[[[79.585104,15.622237],[79.584642,15.622375],[79.582457,15.622692],[79.582345,15.622016],[79.582231,15.621452],[79.583227,15.621296],[79.584905,15.621033],[79.585104,15.622237]]]},"properties":{"lp":"73"}},{"type":"Feature","geometry":{"type":"Polygon","coordinates":[[[79.582345,15.622016],[79.58086,15.622224],[79.580851,15.622013],[79.580593,15.622044],[79.580419,15.62103],[79.580246,15.620196],[79.580553,15.62015],[79.581995,15.619842],[79.582231,15.621452],[79.582345,15.622016]]]},"properties":{"lp":"76"}},{"type":"Feature","geometry":{"type":"Polygon","coordinates":[[[79.581995,15.619842],[79.580553,15.62015],[79.580271,15.618809],[79.581484,15.618576],[79.581506,15.618662],[79.582903,15.618463],[79.581995,15.619842]]]},"properties":{"lp":"75"}},{"type":"Feature","geometry":{"type":"Polygon","coordinates":[[[79.584905,15.621033],[79.583227,15.621296],[79.582231,15.621452],[79.581995,15.619842],[79.582903,15.618463],[79.582939,15.618565],[79.583362,15.62021],[79.58475,15.619914],[79.584905,15.621033]]]},"properties":{"lp":"74"}},{"type":"Feature","geometry":{"type":"Polygon","coordinates":[[[79.586759,15.618481],[79.586664,15.619552],[79.586623,15.620471],[79.586579,15.621825],[79.586173,15.621982],[79.585104,15.622237],[79.584905,15.621033],[79.58475,15.619914],[79.585306,15.619753],[79.58515,15.618795],[79.585992,15.618608],[79.586689,15.618438],[79.586759,15.618481]]]},"properties":{"lp":"70"}},{"type":"Feature","geometry":{"type":"Polygon","coordinates":[[[79.579818,15.61481],[79.579087,15.615198],[79.578565,15.61545],[79.578337,15.615564],[79.578277,15.61555],[79.577728,15.615522],[79.577744,15.615313],[79.578701,15.614673],[79.578958,15.614516],[79.57971,15.614178],[79.579818,15.61481]]]},"properties":{"lp":"91"}},{"type":"Feature","geometry":{"type":"Polygon","coordinates":[[[79.581151,15.616927],[79.580086,15.617039],[79.580154,15.616826],[79.580067,15.61676],[79.580048,15.616404],[79.580012,15.616188],[79.579982,15.615738],[79.580169,15.61541],[79.580354,15.615099],[79.581022,15.615245],[79.58107,15.615919],[79.581137,15.616605],[79.581151,15.616927]]]},"properties":{"lp":"84"}},{"type":"Feature","geometry":{"type":"Polygon","coordinates":[[[79.580056,15.617265],[79.580016,15.617266],[79.57987,15.616945],[79.579784,15.61681],[79.57974,15.616563],[79.579788,15.615836],[79.580087,15.615268],[79.579951,15.615024],[79.579818,15.61481],[79.579997,15.614939],[79.580238,15.615047],[79.580354,15.615099],[79.580169,15.61541],[79.579982,15.615738],[79.580012,15.616188],[79.580048,15.616404],[79.580067,15.61676],[79.580154,15.616826],[79.580086,15.617039],[79.580056,15.617265]]]},"properties":{"lp":"85"}},{"type":"Feature","geometry":{"type":"Polygon","coordinates":[[[79.576956,15.620556],[79.576984,15.620795],[79.573562,15.621794],[79.573541,15.621713],[79.573313,15.620688],[79.573859,15.620463],[79.574058,15.620405],[79.574964,15.620117],[79.575158,15.619906],[79.576015,15.619258],[79.576623,15.6189],[79.576755,15.61887],[79.576857,15.619834],[79.576956,15.620556]]]},"properties":{"lp":"105"}},{"type":"Feature","geometry":{"type":"Polygon","coordinates":[[[79.576755,15.61887],[79.576623,15.6189],[79.576981,15.618169],[79.577612,15.617899],[79.578004,15.617742],[79.578282,15.617613],[79.578828,15.61743],[79.578875,15.617518],[79.5791,15.617498],[79.579779,15.617281],[79.580016,15.617266],[79.580056,15.617265],[79.580009,15.617591],[79.579369,15.617732],[79.579489,15.617532],[79.578946,15.617675],[79.578252,15.61788],[79.577999,15.618215],[79.577792,15.61828],[79.577426,15.618485],[79.577355,15.618483],[79.576755,15.61887]]]},"properties":{"lp":"86"}},{"type":"Feature","geometry":{"type":"Polygon","coordinates":[[[79.579951,15.615024],[79.580087,15.615268],[79.579788,15.615836],[79.57974,15.616563],[79.579784,15.61681],[79.57987,15.616945],[79.580016,15.617266],[79.579779,15.617281],[79.5791,15.617498],[79.578875,15.617518],[79.578828,15.61743],[79.578825,15.617327],[79.578759,15.616223],[79.578565,15.61545],[79.579087,15.615198],[79.579818,15.61481],[79.579951,15.615024]]]},"properties":{"lp":"89"}},{"type":"Feature","geometry":{"type":"Polygon","coordinates":[[[79.580246,15.620196],[79.579854,15.619877],[79.579431,15.620308],[79.578949,15.620374],[79.578814,15.619857],[79.578584,15.6199],[79.578513,15.619919],[79.57886,15.619016],[79.57926,15.618014],[79.579369,15.617732],[79.580009,15.617591],[79.580234,15.618669],[79.580271,15.618809],[79.580553,15.62015],[79.580246,15.620196]]]},"properties":{"lp":"82"}},{"type":"Feature","geometry":{"type":"Polygon","coordinates":[[[79.578513,15.619919],[79.577779,15.620224],[79.577453,15.618696],[79.577426,15.618485],[79.577792,15.61828],[79.577999,15.618215],[79.578252,15.61788],[79.578946,15.617675],[79.579489,15.617532],[79.579369,15.617732],[79.57926,15.618014],[79.57886,15.619016],[79.578513,15.619919]]]},"properties":{"lp":"81"}},{"type":"Feature","geometry":{"type":"Polygon","coordinates":[[[79.577583,15.620429],[79.576956,15.620556],[79.576857,15.619834],[79.576755,15.61887],[79.577355,15.618483],[79.577426,15.618485],[79.577453,15.618696],[79.577779,15.620224],[79.57758,15.620288],[79.577583,15.620429]]]},"properties":{"lp":"80"}},{"type":"Feature","geometry":{"type":"Polygon","coordinates":[[[79.579302,15.621832],[79.577811,15.622068],[79.577662,15.620948],[79.577583,15.620429],[79.57758,15.620288],[79.577779,15.620224],[79.578513,15.619919],[79.578584,15.6199],[79.578814,15.619857],[79.578949,15.620374],[79.579302,15.621832]]]},"properties":{"lp":"79"}},{"type":"Feature","geometry":{"type":"Polygon","coordinates":[[[79.573934,15.62278],[79.573762,15.622819],[79.573562,15.621794],[79.576984,15.620795],[79.576956,15.620556],[79.577583,15.620429],[79.577662,15.620948],[79.577811,15.622068],[79.577675,15.622099],[79.577653,15.621997],[79.574811,15.622601],[79.573934,15.62278]]]},"properties":{"lp":"106"}},{"type":"Feature","geometry":{"type":"Polygon","coordinates":[[[79.577675,15.622099],[79.577814,15.623907],[79.577891,15.624636],[79.577543,15.624675],[79.576551,15.624975],[79.575506,15.625289],[79.574853,15.625424],[79.574373,15.625533],[79.573952,15.623955],[79.574189,15.623866],[79.573934,15.62278],[79.574811,15.622601],[79.577653,15.621997],[79.577675,15.622099]]]},"properties":{"lp":"107"}},{"type":"Feature","geometry":{"type":"Polygon","coordinates":[[[79.574373,15.625533],[79.57421,15.625569],[79.573646,15.625723],[79.573365,15.625384],[79.572972,15.624931],[79.572772,15.624308],[79.571697,15.624605],[79.571417,15.623346],[79.571788,15.623238],[79.572437,15.623084],[79.57349,15.62287],[79.573762,15.622819],[79.573934,15.62278],[79.574189,15.623866],[79.573952,15.623955],[79.574373,15.625533]]]},"properties":{"lp":"108"}},{"type":"Feature","geometry":{"type":"Polygon","coordinates":[[[79.573762,15.622819],[79.57349,15.62287],[79.572437,15.623084],[79.57211,15.621543],[79.572013,15.620922],[79.572522,15.620789],[79.572592,15.620942],[79.573313,15.620688],[79.573541,15.621713],[79.573562,15.621794],[79.573762,15.622819]]]},"properties":{"lp":"109"}},{"type":"Feature","geometry":{"type":"Polygon","coordinates":[[[79.571417,15.623346],[79.571098,15.623406],[79.571034,15.623066],[79.570854,15.621977],[79.570746,15.621286],[79.572013,15.620922],[79.57211,15.621543],[79.572437,15.623084],[79.571788,15.623238],[79.571417,15.623346]]]},"properties":{"lp":"110"}},{"type":"Feature","geometry":{"type":"Polygon","coordinates":[[[79.578828,15.61743],[79.578282,15.617613],[79.578004,15.617742],[79.577612,15.617899],[79.577501,15.617642],[79.577387,15.617327],[79.577141,15.616697],[79.577572,15.616324],[79.577875,15.616054],[79.578035,15.615872],[79.578337,15.615564],[79.578565,15.61545],[79.578759,15.616223],[79.578825,15.617327],[79.578828,15.61743]]]},"properties":{"lp":"88"}},{"type":"Feature","geometry":{"type":"Polygon","coordinates":[[[79.576623,15.6189],[79.576015,15.619258],[79.57585,15.618842],[79.575533,15.61804],[79.57589,15.617728],[79.576184,15.61747],[79.576897,15.616903],[79.577141,15.616697],[79.577387,15.617327],[79.577501,15.617642],[79.577612,15.617899],[79.576981,15.618169],[79.576623,15.6189]]]},"properties":{"lp":"87"}},{"type":"Feature","geometry":{"type":"Polygon","coordinates":[[[79.578277,15.61555],[79.578337,15.615564],[79.578035,15.615872],[79.577875,15.616054],[79.577572,15.616324],[79.577141,15.616697],[79.576897,15.616903],[79.576184,15.61747],[79.57589,15.617728],[79.576073,15.617405],[79.576459,15.616866],[79.576595,15.616633],[79.576812,15.616221],[79.577346,15.615993],[79.577728,15.615522],[79.578277,15.61555]]]},"properties":{"lp":"92"}},{"type":"Feature","geometry":{"type":"Polygon","coordinates":[[[79.576595,15.616633],[79.576459,15.616866],[79.576073,15.617405],[79.57589,15.617728],[79.575533,15.61804],[79.575384,15.617724],[79.57566,15.617504],[79.576132,15.616808],[79.576395,15.616393],[79.576538,15.616334],[79.576583,15.61632],[79.576649,15.616296],[79.576812,15.616221],[79.576595,15.616633]]]},"properties":{"lp":"121"}},{"type":"Feature","geometry":{"type":"Polygon","coordinates":[[[79.575533,15.61804],[79.575222,15.618245],[79.574928,15.618444],[79.574504,15.618684],[79.57411,15.618852],[79.573909,15.618638],[79.574482,15.618281],[79.575384,15.617724],[79.575533,15.61804]]]},"properties":{"lp":"94"}},{"type":"Feature","geometry":{"type":"Polygon","coordinates":[[[79.574482,15.618281],[79.573909,15.618638],[79.573666,15.618789],[79.573597,15.61822],[79.572928,15.618279],[79.572534,15.617046],[79.572868,15.617006],[79.574075,15.616791],[79.575258,15.616594],[79.576295,15.616407],[79.576395,15.616393],[79.576132,15.616808],[79.57566,15.617504],[79.575384,15.617724],[79.574482,15.618281]]]},"properties":{"lp":"93"}},{"type":"Feature","geometry":{"type":"Polygon","coordinates":[[[79.573666,15.618789],[79.573134,15.619022],[79.572928,15.618279],[79.573597,15.61822],[79.573666,15.618789]]]},"properties":{"lp":"95"}},{"type":"Feature","geometry":{"type":"Polygon","coordinates":[[[79.57585,15.618842],[79.576015,15.619258],[79.575158,15.619906],[79.574964,15.620117],[79.574058,15.620405],[79.573859,15.620463],[79.573751,15.620133],[79.573815,15.619868],[79.573589,15.619176],[79.57411,15.618852],[79.574504,15.618684],[79.574928,15.618444],[79.575222,15.618245],[79.575533,15.61804],[79.57585,15.618842]]]},"properties":{"lp":"104"}},{"type":"Feature","geometry":{"type":"Polygon","coordinates":[[[79.57411,15.618852],[79.573589,15.619176],[79.57253,15.619485],[79.572468,15.619249],[79.573134,15.619022],[79.573666,15.618789],[79.573909,15.618638],[79.57411,15.618852]]]},"properties":{"lp":"122"}},{"type":"Feature","geometry":{"type":"Polygon","coordinates":[[[79.57253,15.619485],[79.571515,15.619778],[79.57075,15.620045],[79.570672,15.619804],[79.571441,15.619569],[79.572468,15.619249],[79.57253,15.619485]]]},"properties":{"lp":"123"}},{"type":"Feature","geometry":{"type":"Polygon","coordinates":[[[79.572928,15.618279],[79.573134,15.619022],[79.572468,15.619249],[79.571441,15.619569],[79.571189,15.618515],[79.570882,15.617189],[79.571804,15.617069],[79.572534,15.617046],[79.572928,15.618279]]]},"properties":{"lp":"96"}},{"type":"Feature","geometry":{"type":"Polygon","coordinates":[[[79.571189,15.618515],[79.571441,15.619569],[79.570672,15.619804],[79.569491,15.620129],[79.569367,15.619556],[79.569462,15.619522],[79.569222,15.617613],[79.569677,15.617475],[79.570299,15.617298],[79.570882,15.617189],[79.571189,15.618515]]]},"properties":{"lp":"97"}},{"type":"Feature","geometry":{"type":"Polygon","coordinates":[[[79.572013,15.620922],[79.570746,15.621286],[79.570517,15.620128],[79.57075,15.620045],[79.571515,15.619778],[79.57253,15.619485],[79.573589,15.619176],[79.573815,15.619868],[79.573751,15.620133],[79.573859,15.620463],[79.573313,15.620688],[79.572592,15.620942],[79.572522,15.620789],[79.572013,15.620922]]]},"properties":{"lp":"103"}},{"type":"Feature","geometry":{"type":"Polygon","coordinates":[[[79.570517,15.620128],[79.570102,15.620269],[79.569005,15.620643],[79.568938,15.620513],[79.568898,15.620436],[79.569491,15.620129],[79.570672,15.619804],[79.57075,15.620045],[79.570517,15.620128]]]},"properties":{"lp":"124"}},{"type":"Feature","geometry":{"type":"Polygon","coordinates":[[[79.570854,15.621977],[79.570089,15.622158],[79.568598,15.622511],[79.568222,15.621005],[79.569005,15.620643],[79.570102,15.620269],[79.570517,15.620128],[79.570746,15.621286],[79.570854,15.621977]]]},"properties":{"lp":"102"}},{"type":"Feature","geometry":{"type":"Polygon","coordinates":[[[79.586951,15.623962],[79.586904,15.62397],[79.586611,15.622916],[79.586587,15.622621],[79.586579,15.621825],[79.586629,15.621815],[79.587402,15.621656],[79.587565,15.621785],[79.587898,15.622812],[79.588187,15.623098],[79.58841,15.623759],[79.58829,15.623794],[79.588147,15.623856],[79.588128,15.623741],[79.586951,15.623962]]]},"properties":{"lp":"10"}},{"type":"Feature","geometry":{"type":"Polygon","coordinates":[[[79.58841,15.623759],[79.588187,15.623098],[79.589367,15.622815],[79.589799,15.622712],[79.589938,15.623555],[79.58946,15.623529],[79.588793,15.623452],[79.58841,15.623759]]]},"properties":{"lp":"9"}},{"type":"Feature","geometry":{"type":"Polygon","coordinates":[[[79.588662,15.620808],[79.588688,15.620972],[79.587456,15.621195],[79.587402,15.621656],[79.586629,15.621815],[79.586579,15.621825],[79.586623,15.620471],[79.58724,15.620369],[79.588558,15.620164],[79.588662,15.620808]]]},"properties":{"lp":"11"}},{"type":"Feature","geometry":{"type":"Polygon","coordinates":[[[79.588558,15.620164],[79.58724,15.620369],[79.586623,15.620471],[79.586664,15.619552],[79.588429,15.619202],[79.588558,15.620164]]]},"properties":{"lp":"14"}},{"type":"Feature","geometry":{"type":"Polygon","coordinates":[[[79.589028,15.617471],[79.589262,15.618411],[79.589412,15.618972],[79.588429,15.619202],[79.586664,15.619552],[79.586759,15.618481],[79.587339,15.618392],[79.588477,15.617641],[79.588918,15.617349],[79.589028,15.617471]]]},"properties":{"lp":"15"}},{"type":"Feature","geometry":{"type":"Polygon","coordinates":[[[79.588918,15.617349],[79.588477,15.617641],[79.587339,15.618392],[79.586759,15.618481],[79.586928,15.617423],[79.587054,15.616647],[79.587056,15.616635],[79.587151,15.615812],[79.587285,15.615792],[79.588741,15.615572],[79.589535,15.615663],[79.588924,15.61682],[79.588918,15.617349]]]},"properties":{"lp":"16"}},{"type":"Feature","geometry":{"type":"Polygon","coordinates":[[[79.590145,15.617309],[79.589028,15.617471],[79.588918,15.617349],[79.588924,15.61682],[79.589535,15.615663],[79.589459,15.615464],[79.589586,15.615295],[79.590393,15.615165],[79.590715,15.616434],[79.590011,15.616554],[79.590145,15.617309]]]},"properties":{"lp":"17"}},{"type":"Feature","geometry":{"type":"Polygon","coordinates":[[[79.587056,15.616635],[79.586301,15.616768],[79.586106,15.61549],[79.585962,15.614096],[79.586543,15.61397],[79.587496,15.613743],[79.587458,15.614765],[79.587382,15.615026],[79.587151,15.615812],[79.587056,15.616635]]]},"properties":{"lp":"62"}},{"type":"Feature","geometry":{"type":"Polygon","coordinates":[[[79.585992,15.618608],[79.58515,15.618795],[79.585116,15.618316],[79.585097,15.617583],[79.585264,15.617551],[79.585297,15.616958],[79.586301,15.616768],[79.587056,15.616635],[79.587054,15.616647],[79.586928,15.617423],[79.586759,15.618481],[79.586689,15.618438],[79.585992,15.618608]]]},"properties":{"lp":"69"}},{"type":"Feature","geometry":{"type":"Polygon","coordinates":[[[79.585116,15.618316],[79.58515,15.618795],[79.585306,15.619753],[79.58475,15.619914],[79.583362,15.62021],[79.582939,15.618565],[79.582903,15.618463],[79.583056,15.61811],[79.584091,15.617849],[79.585097,15.617583],[79.585116,15.618316]]]},"properties":{"lp":"67"}},{"type":"Feature","geometry":{"type":"Polygon","coordinates":[[[79.581484,15.618576],[79.580271,15.618809],[79.580234,15.618669],[79.580009,15.617591],[79.580056,15.617265],[79.580086,15.617039],[79.581151,15.616927],[79.58131,15.617868],[79.581484,15.618576]]]},"properties":{"lp":"83"}},{"type":"Feature","geometry":{"type":"Polygon","coordinates":[[[79.582903,15.618463],[79.581506,15.618662],[79.581484,15.618576],[79.58131,15.617868],[79.581151,15.616927],[79.581137,15.616605],[79.58107,15.615919],[79.581022,15.615245],[79.582057,15.61506],[79.582644,15.614972],[79.583025,15.616956],[79.583728,15.61684],[79.583525,15.617211],[79.583056,15.61811],[79.582903,15.618463]]]},"properties":{"lp":"66"}},{"type":"Feature","geometry":{"type":"Polygon","coordinates":[[[79.583728,15.61684],[79.583025,15.616956],[79.582644,15.614972],[79.584246,15.614548],[79.584578,15.615677],[79.584125,15.616276],[79.583728,15.61684]]]},"properties":{"lp":"65"}},{"type":"Feature","geometry":{"type":"Polygon","coordinates":[[[79.585264,15.617551],[79.585097,15.617583],[79.584091,15.617849],[79.583056,15.61811],[79.583525,15.617211],[79.584177,15.617123],[79.585297,15.616958],[79.585264,15.617551]]]},"properties":{"lp":"68"}},{"type":"Feature","geometry":{"type":"Polygon","coordinates":[[[79.591149,15.616723],[79.591404,15.617716],[79.590242,15.617956],[79.590145,15.617309],[79.590011,15.616554],[79.590715,15.616434],[79.59105,15.616414],[79.591149,15.616723]]]},"properties":{"lp":"18"}},{"type":"Feature","geometry":{"type":"Polygon","coordinates":[[[79.591946,15.616588],[79.591149,15.616723],[79.59105,15.616414],[79.590715,15.616434],[79.590393,15.615165],[79.589586,15.615295],[79.589896,15.61502],[79.590204,15.61441],[79.590516,15.613767],[79.591122,15.614398],[79.591711,15.61501],[79.591978,15.615197],[79.592354,15.615709],[79.592869,15.616415],[79.591946,15.616588]]]},"properties":{"lp":"34"}},{"type":"Feature","geometry":{"type":"Polygon","coordinates":[[[79.593658,15.622321],[79.59323,15.622341],[79.592966,15.621547],[79.593349,15.62142],[79.592795,15.619917],[79.592952,15.619875],[79.593439,15.619779],[79.593585,15.620323],[79.594756,15.620021],[79.595264,15.620763],[79.59578,15.62149],[79.594295,15.621937],[79.594332,15.622165],[79.593658,15.622321]]]},"properties":{"lp":"21"}},{"type":"Feature","geometry":{"type":"Polygon","coordinates":[[[79.594756,15.620021],[79.593585,15.620323],[79.593439,15.619779],[79.592952,15.619875],[79.592598,15.618415],[79.592358,15.617368],[79.593444,15.617079],[79.593661,15.617448],[79.594053,15.618247],[79.594392,15.618948],[79.594756,15.620021]]]},"properties":{"lp":"20"}},{"type":"Feature","geometry":{"type":"Polygon","coordinates":[[[79.571098,15.623406],[79.568896,15.623899],[79.568665,15.622841],[79.568598,15.622511],[79.570089,15.622158],[79.570854,15.621977],[79.571034,15.623066],[79.571098,15.623406]]]},"properties":{"lp":"111"}},{"type":"Feature","geometry":{"type":"Polygon","coordinates":[[[79.571697,15.624605],[79.570006,15.625028],[79.569437,15.625166],[79.569222,15.62524],[79.568385,15.625022],[79.567809,15.624413],[79.568142,15.624307],[79.568083,15.62407],[79.568896,15.623899],[79.571098,15.623406],[79.571417,15.623346],[79.571697,15.624605]]]},"properties":{"lp":"112"}},{"type":"Feature","geometry":{"type":"Polygon","coordinates":[[[79.571805,15.626005],[79.57048,15.625775],[79.569981,15.625566],[79.569628,15.625416],[79.569222,15.62524],[79.569437,15.625166],[79.570006,15.625028],[79.571697,15.624605],[79.572772,15.624308],[79.572972,15.624931],[79.573365,15.625384],[79.573646,15.625723],[79.573528,15.625814],[79.573432,15.62587],[79.573337,15.625937],[79.572789,15.625994],[79.572403,15.625816],[79.571805,15.626005]]]},"properties":{"lp":"113"}},{"type":"Feature","geometry":{"type":"Polygon","coordinates":[[[79.56797,15.62719],[79.567728,15.625731],[79.56673,15.62594],[79.566659,15.625409],[79.568102,15.625089],[79.568385,15.625022],[79.569222,15.62524],[79.569628,15.625416],[79.569981,15.625566],[79.57048,15.625775],[79.570479,15.625839],[79.570489,15.625952],[79.5705,15.626066],[79.570499,15.626377],[79.569556,15.62661],[79.568894,15.626707],[79.568192,15.627183],[79.568141,15.627104],[79.56797,15.62719]]]},"properties":{"lp":"114"}},{"type":"Feature","geometry":{"type":"Polygon","coordinates":[[[79.56797,15.62719],[79.567758,15.62726],[79.567519,15.627373],[79.567047,15.627604],[79.566433,15.627857],[79.565906,15.626701],[79.565883,15.626609],[79.565547,15.625977],[79.565454,15.625657],[79.565324,15.62541],[79.565068,15.62496],[79.565807,15.624748],[79.567009,15.624543],[79.567809,15.624413],[79.568385,15.625022],[79.568102,15.625089],[79.566659,15.625409],[79.56673,15.62594],[79.567728,15.625731],[79.56797,15.62719]]]},"properties":{"lp":"115"}},{"type":"Feature","geometry":{"type":"Polygon","coordinates":[[[79.568222,15.621005],[79.5673,15.621454],[79.567187,15.621248],[79.568192,15.62079],[79.568898,15.620436],[79.568938,15.620513],[79.569005,15.620643],[79.568222,15.621005]]]},"properties":{"lp":"101"}}]}