{"type":"FeatureCollection","village":"RAMAYANAM KANDRIKA","features":[{"type":"Feature","geometry":{"type":"Polygon","coordinates":[[[79.584841,15.603365],[79.584305,15.603563],[79.584175,15.602921],[79.585606,15.602828],[79.584841,15.603365]]]},"properties":{"lp":"21"}},{"type":"Feature","geometry":{"type":"Polygon","coordinates":[[[79.585687,15.602958],[79.585798,15.603141],[79.585019,15.603655],[79.584658,15.603782],[79.584344,15.603875],[79.583898,15.604059],[79.583864,15.603776],[79.584305,15.603563],[79.584841,15.603365],[79.585606,15.602828],[79.585687,15.602958]]]},"properties":{"lp":"73"}},{"type":"Feature","geometry":{"type":"Polygon","coordinates":[[[79.584344,15.603875],[79.58444,15.604283],[79.583714,15.604361],[79.583498,15.604384],[79.58327,15.604323],[79.583898,15.604059],[79.584344,15.603875]]]},"properties":{"lp":"88"}},{"type":"Feature","geometry":{"type":"Polygon","coordinates":[[[79.585996,15.603923],[79.585963,15.604151],[79.58588,15.60478],[79.585269,15.604977],[79.584963,15.605014],[79.584507,15.604778],[79.584474,15.604525],[79.58444,15.604283],[79.584344,15.603875],[79.584658,15.603782],[79.585019,15.603655],[79.585798,15.603141],[79.585996,15.603923]]]},"properties":{"lp":"89"}},{"type":"Feature","geometry":{"type":"Polygon","coordinates":[[[79.585873,15.605213],[79.585621,15.605753],[79.585272,15.605835],[79.585128,15.605845],[79.584336,15.605713],[79.584032,15.605669],[79.583998,15.60566],[79.584004,15.605317],[79.584556,15.605241],[79.584507,15.604778],[79.584963,15.605014],[79.585269,15.604977],[79.58588,15.60478],[79.585873,15.605213]]]},"properties":{"lp":"20"}},{"type":"Feature","geometry":{"type":"Polygon","coordinates":[[[79.585569,15.606232],[79.585563,15.606347],[79.58556,15.606427],[79.585212,15.606397],[79.584641,15.606298],[79.58454,15.606102],[79.584368,15.606084],[79.584134,15.605802],[79.583998,15.60566],[79.584032,15.605669],[79.584336,15.605713],[79.585128,15.605845],[79.585272,15.605835],[79.585621,15.605753],[79.585603,15.60584],[79.585569,15.606232]]]},"properties":{"lp":"16"}},{"type":"Feature","geometry":{"type":"Polygon","coordinates":[[[79.582873,15.606726],[79.582729,15.606846],[79.582192,15.6067],[79.581093,15.606824],[79.58106,15.60664],[79.581039,15.606526],[79.581043,15.606498],[79.581051,15.606424],[79.582268,15.606133],[79.58327,15.606096],[79.583559,15.60565],[79.583877,15.605669],[79.583998,15.60566],[79.584134,15.605802],[79.584368,15.606084],[79.583684,15.606167],[79.582873,15.606726]]]},"properties":{"lp":"17"}},{"type":"Feature","geometry":{"type":"Polygon","coordinates":[[[79.58454,15.606102],[79.584641,15.606298],[79.584654,15.606556],[79.584681,15.606785],[79.584226,15.607225],[79.583641,15.607203],[79.583139,15.607187],[79.582665,15.607122],[79.582729,15.606846],[79.582873,15.606726],[79.583684,15.606167],[79.584368,15.606084],[79.58454,15.606102]]]},"properties":{"lp":"15"}},{"type":"Feature","geometry":{"type":"Polygon","coordinates":[[[79.584412,15.607465],[79.584436,15.607718],[79.584047,15.607465],[79.583641,15.607203],[79.584226,15.607225],[79.584681,15.606785],[79.584654,15.606556],[79.584641,15.606298],[79.585212,15.606397],[79.58556,15.606427],[79.585455,15.60654],[79.585444,15.606621],[79.585484,15.606722],[79.585382,15.606787],[79.585305,15.606842],[79.585176,15.606928],[79.584952,15.606839],[79.584815,15.607037],[79.584763,15.607117],[79.584717,15.607194],[79.584412,15.607465]]]},"properties":{"lp":"14"}},{"type":"Feature","geometry":{"type":"Polygon","coordinates":[[[79.577782,15.604813],[79.577634,15.604845],[79.577657,15.605106],[79.577272,15.60519],[79.57676,15.604854],[79.576638,15.604794],[79.576406,15.60308],[79.577341,15.603038],[79.577782,15.604813]]]},"properties":{"lp":"27"}},{"type":"Feature","geometry":{"type":"Polygon","coordinates":[[[79.576638,15.604794],[79.57565,15.604448],[79.575252,15.603536],[79.574816,15.602446],[79.57568,15.602819],[79.575768,15.603118],[79.576406,15.60308],[79.576638,15.604794]]]},"properties":{"lp":"28"}},{"type":"Feature","geometry":{"type":"Polygon","coordinates":[[[79.574816,15.602446],[79.575252,15.603536],[79.57565,15.604448],[79.575386,15.604383],[79.573145,15.603867],[79.573026,15.603854],[79.573017,15.602746],[79.573009,15.60209],[79.573738,15.602415],[79.574301,15.602408],[79.574816,15.602446]]]},"properties":{"lp":"29"}},{"type":"Feature","geometry":{"type":"Polygon","coordinates":[[[79.573026,15.603854],[79.572212,15.603921],[79.572204,15.603868],[79.572149,15.603053],[79.572066,15.601773],[79.573009,15.60209],[79.573017,15.602746],[79.573026,15.603854]]]},"properties":{"lp":"30"}},{"type":"Feature","geometry":{"type":"Polygon","coordinates":[[[79.571403,15.601476],[79.571887,15.601659],[79.572066,15.601773],[79.572149,15.603053],[79.572204,15.603868],[79.570639,15.604014],[79.569693,15.604123],[79.569417,15.602686],[79.569335,15.601515],[79.570424,15.601447],[79.570777,15.601415],[79.571403,15.601476]]]},"properties":{"lp":"31"}},{"type":"Feature","geometry":{"type":"Polygon","coordinates":[[[79.569417,15.602686],[79.569693,15.604123],[79.567912,15.604299],[79.567873,15.604183],[79.567725,15.603731],[79.567954,15.603093],[79.568033,15.602027],[79.568038,15.60152],[79.569335,15.601515],[79.569417,15.602686]]]},"properties":{"lp":"32"}},{"type":"Feature","geometry":{"type":"Polygon","coordinates":[[[79.575219,15.606846],[79.574659,15.607199],[79.574586,15.607261],[79.574274,15.607112],[79.572476,15.606315],[79.571492,15.60587],[79.571195,15.60666],[79.570466,15.606459],[79.569846,15.605868],[79.569507,15.60557],[79.568531,15.605121],[79.567853,15.604801],[79.567912,15.604299],[79.569693,15.604123],[79.570639,15.604014],[79.572204,15.603868],[79.572212,15.603921],[79.573026,15.603854],[79.573145,15.603867],[79.575386,15.604383],[79.57565,15.604448],[79.576638,15.604794],[79.57676,15.604854],[79.577272,15.60519],[79.577657,15.605106],[79.577634,15.604845],[79.577782,15.604813],[79.578957,15.604704],[79.579042,15.604955],[79.579597,15.605009],[79.579723,15.604862],[79.579791,15.604815],[79.580249,15.604764],[79.580341,15.605129],[79.580687,15.605107],[79.581053,15.605542],[79.580822,15.60608],[79.580831,15.606253],[79.58084,15.606411],[79.580313,15.606467],[79.579174,15.606565],[79.578584,15.606644],[79.577009,15.606629],[79.576612,15.606634],[79.575588,15.606594],[79.575219,15.606846]]]},"properties":{"lp":"34"}},{"type":"Feature","geometry":{"type":"Polygon","coordinates":[[[79.58327,15.604323],[79.582972,15.604456],[79.582264,15.60481],[79.58213,15.604869],[79.582079,15.604692],[79.582047,15.604581],[79.582515,15.604363],[79.583167,15.604108],[79.583864,15.603776],[79.583898,15.604059],[79.58327,15.604323]]]},"properties":{"lp":"74"}},{"type":"Feature","geometry":{"type":"Polygon","coordinates":[[[79.584474,15.604525],[79.584507,15.604778],[79.584556,15.605241],[79.584004,15.605317],[79.583998,15.60566],[79.583877,15.605669],[79.583559,15.60565],[79.583488,15.605416],[79.583526,15.604893],[79.583496,15.604587],[79.583498,15.604384],[79.583714,15.604361],[79.58444,15.604283],[79.584474,15.604525]]]},"properties":{"lp":"19"}},{"type":"Feature","geometry":{"type":"Polygon","coordinates":[[[79.583488,15.605416],[79.58317,15.605481],[79.58284,15.605421],[79.582345,15.605355],[79.581857,15.605426],[79.581554,15.605428],[79.581867,15.605004],[79.58213,15.604869],[79.582264,15.60481],[79.582972,15.604456],[79.58327,15.604323],[79.583498,15.604384],[79.583496,15.604587],[79.583526,15.604893],[79.583488,15.605416]]]},"properties":{"lp":"87"}},{"type":"Feature","geometry":{"type":"Polygon","coordinates":[[[79.57963,15.612939],[79.579037,15.613207],[79.578461,15.613445],[79.578745,15.612941],[79.579203,15.612171],[79.579382,15.612136],[79.57963,15.612939]]]},"properties":{"lp":"2"}},{"type":"Feature","geometry":{"type":"Polygon","coordinates":[[[79.580146,15.611345],[79.580219,15.611705],[79.579353,15.61201],[79.579382,15.612136],[79.579203,15.612171],[79.579693,15.611316],[79.580013,15.61078],[79.580146,15.611345]]]},"properties":{"lp":"4"}},{"type":"Feature","geometry":{"type":"Polygon","coordinates":[[[79.579203,15.612171],[79.578745,15.612941],[79.578499,15.612794],[79.578812,15.612263],[79.579401,15.611211],[79.57944,15.611171],[79.579693,15.611316],[79.579203,15.612171]]]},"properties":{"lp":"79"}},{"type":"Feature","geometry":{"type":"Polygon","coordinates":[[[79.578745,15.612941],[79.578461,15.613445],[79.578256,15.613785],[79.577941,15.614312],[79.577826,15.614514],[79.577703,15.614458],[79.577571,15.614397],[79.578005,15.613645],[79.578061,15.613555],[79.578499,15.612794],[79.578745,15.612941]]]},"properties":{"lp":"80"}},{"type":"Feature","geometry":{"type":"Polygon","coordinates":[[[79.577703,15.614458],[79.577826,15.614514],[79.57767,15.61478],[79.577252,15.615485],[79.576812,15.616221],[79.576649,15.616296],[79.576583,15.61632],[79.576538,15.616334],[79.576395,15.616393],[79.576657,15.615947],[79.577571,15.614397],[79.577703,15.614458]]]},"properties":{"lp":"81"}},{"type":"Feature","geometry":{"type":"Polygon","coordinates":[[[79.579649,15.612959],[79.579699,15.613005],[79.580059,15.613323],[79.580252,15.613508],[79.58007,15.613871],[79.579707,15.614084],[79.57971,15.614178],[79.578958,15.614516],[79.578701,15.614673],[79.577744,15.615313],[79.577728,15.615522],[79.577346,15.615993],[79.576812,15.616221],[79.577252,15.615485],[79.57767,15.61478],[79.577826,15.614514],[79.577941,15.614312],[79.578256,15.613785],[79.578461,15.613445],[79.579037,15.613207],[79.57963,15.612939],[79.579649,15.612959]]]},"properties":{"lp":"1"}},{"type":"Feature","geometry":{"type":"Polygon","coordinates":[[[79.578005,15.613645],[79.577571,15.614397],[79.576657,15.615947],[79.576395,15.616393],[79.576295,15.616407],[79.576057,15.614897],[79.576805,15.614716],[79.57741,15.614584],[79.577275,15.613795],[79.578061,15.613555],[79.578005,15.613645]]]},"properties":{"lp":"82"}},{"type":"Feature","geometry":{"type":"Polygon","coordinates":[[[79.576295,15.616407],[79.575258,15.616594],[79.575112,15.615651],[79.574862,15.613903],[79.576038,15.613616],[79.576111,15.61401],[79.577275,15.613795],[79.57741,15.614584],[79.576805,15.614716],[79.576057,15.614897],[79.576295,15.616407]]]},"properties":{"lp":"50"}},{"type":"Feature","geometry":{"type":"Polygon","coordinates":[[[79.575258,15.616594],[79.574075,15.616791],[79.572868,15.617006],[79.57261,15.615759],[79.572377,15.614358],[79.57321,15.614239],[79.573509,15.615909],[79.575112,15.615651],[79.575258,15.616594]]]},"properties":{"lp":"52"}},{"type":"Feature","geometry":{"type":"Polygon","coordinates":[[[79.575112,15.615651],[79.573509,15.615909],[79.57321,15.614239],[79.574013,15.614098],[79.574862,15.613903],[79.575112,15.615651]]]},"properties":{"lp":"51"}},{"type":"Feature","geometry":{"type":"Polygon","coordinates":[[[79.568531,15.605121],[79.569507,15.60557],[79.569035,15.605716],[79.567744,15.605255],[79.567742,15.605254],[79.567739,15.605253],[79.56776,15.605167],[79.567792,15.605031],[79.567853,15.604801],[79.568531,15.605121]]]},"properties":{"lp":"33"}},{"type":"Feature","geometry":{"type":"Polygon","coordinates":[[[79.571854,15.606892],[79.571011,15.607243],[79.570747,15.607351],[79.570355,15.607033],[79.569764,15.606428],[79.569462,15.60614],[79.569035,15.605716],[79.569507,15.60557],[79.569846,15.605868],[79.570466,15.606459],[79.571195,15.60666],[79.571492,15.60587],[79.571854,15.606892]]]},"properties":{"lp":"71"}},{"type":"Feature","geometry":{"type":"Polygon","coordinates":[[[79.574857,15.607935],[79.573296,15.608327],[79.573096,15.608389],[79.572288,15.609127],[79.572206,15.608898],[79.572035,15.608368],[79.571879,15.607915],[79.571862,15.607573],[79.571854,15.606892],[79.571492,15.60587],[79.572476,15.606315],[79.574274,15.607112],[79.574586,15.607261],[79.574809,15.607797],[79.574857,15.607935]]]},"properties":{"lp":"42"}},{"type":"Feature","geometry":{"type":"Polygon","coordinates":[[[79.583139,15.607187],[79.583132,15.607247],[79.583096,15.607341],[79.582404,15.607467],[79.582121,15.606963],[79.581504,15.60697],[79.581204,15.607049],[79.581077,15.606975],[79.581093,15.606824],[79.582192,15.6067],[79.582729,15.606846],[79.582665,15.607122],[79.583139,15.607187]]]},"properties":{"lp":"8"}},{"type":"Feature","geometry":{"type":"Polygon","coordinates":[[[79.584047,15.607465],[79.584436,15.607718],[79.584318,15.60796],[79.584131,15.608076],[79.58401,15.608157],[79.583898,15.608254],[79.58376,15.608407],[79.583207,15.609046],[79.583034,15.609242],[79.582841,15.60927],[79.582522,15.60931],[79.582689,15.608957],[79.582808,15.608715],[79.583278,15.608658],[79.583304,15.60826],[79.58356,15.608208],[79.583547,15.60801],[79.583818,15.607751],[79.583641,15.607203],[79.584047,15.607465]]]},"properties":{"lp":"13"}},{"type":"Feature","geometry":{"type":"Polygon","coordinates":[[[79.583641,15.607203],[79.583818,15.607751],[79.583547,15.60801],[79.58356,15.608208],[79.583304,15.60826],[79.583278,15.608658],[79.582808,15.608715],[79.582873,15.608448],[79.583035,15.608256],[79.583197,15.608132],[79.583206,15.607987],[79.583358,15.607744],[79.583344,15.607507],[79.583096,15.607341],[79.583132,15.607247],[79.583139,15.607187],[79.583641,15.607203]]]},"properties":{"lp":"12"}},{"type":"Feature","geometry":{"type":"Polygon","coordinates":[[[79.582873,15.608448],[79.582826,15.608453],[79.582739,15.608496],[79.582582,15.608422],[79.582509,15.608108],[79.582614,15.608041],[79.582635,15.607859],[79.582421,15.607734],[79.58239,15.60762],[79.582404,15.607467],[79.583096,15.607341],[79.583344,15.607507],[79.583358,15.607744],[79.583206,15.607987],[79.583197,15.608132],[79.583035,15.608256],[79.582873,15.608448]]]},"properties":{"lp":"11"}},{"type":"Feature","geometry":{"type":"Polygon","coordinates":[[[79.582808,15.608715],[79.582689,15.608957],[79.582522,15.60931],[79.582046,15.609352],[79.581824,15.608943],[79.581275,15.607922],[79.581231,15.607833],[79.58163,15.60779],[79.581725,15.607762],[79.58239,15.60762],[79.582421,15.607734],[79.582635,15.607859],[79.582614,15.608041],[79.582509,15.608108],[79.582582,15.608422],[79.582739,15.608496],[79.582826,15.608453],[79.582873,15.608448],[79.582808,15.608715]]]},"properties":{"lp":"10"}},{"type":"Feature","geometry":{"type":"Polygon","coordinates":[[[79.58223,15.609608],[79.582146,15.609711],[79.581714,15.610672],[79.581623,15.610835],[79.581137,15.611283],[79.580774,15.611585],[79.580173,15.612597],[79.580219,15.611705],[79.580146,15.611345],[79.580013,15.61078],[79.580616,15.609739],[79.580896,15.609029],[79.58095,15.608531],[79.581015,15.60794],[79.581231,15.607833],[79.581275,15.607922],[79.581824,15.608943],[79.582046,15.609352],[79.582522,15.60931],[79.58223,15.609608]]]},"properties":{"lp":"5"}},{"type":"Feature","geometry":{"type":"Polygon","coordinates":[[[79.58095,15.608531],[79.580896,15.609029],[79.580616,15.609739],[79.580418,15.609581],[79.580545,15.609032],[79.580685,15.608465],[79.580742,15.608198],[79.580757,15.608052],[79.580868,15.608004],[79.581015,15.60794],[79.58095,15.608531]]]},"properties":{"lp":"77"}},{"type":"Feature","geometry":{"type":"Polygon","coordinates":[[[79.580616,15.609739],[79.580013,15.61078],[79.579693,15.611316],[79.57944,15.611171],[79.579714,15.610704],[79.57972,15.610692],[79.580418,15.609581],[79.580616,15.609739]]]},"properties":{"lp":"78"}},{"type":"Feature","geometry":{"type":"Polygon","coordinates":[[[79.580173,15.612597],[79.579649,15.612959],[79.57963,15.612939],[79.579382,15.612136],[79.579353,15.61201],[79.580219,15.611705],[79.580173,15.612597]]]},"properties":{"lp":"3"}},{"type":"Feature","geometry":{"type":"Polygon","coordinates":[[[79.580275,15.607003],[79.579773,15.607002],[79.57926,15.607026],[79.57862,15.607053],[79.578584,15.606644],[79.579174,15.606565],[79.580313,15.606467],[79.58084,15.606411],[79.580822,15.606669],[79.580821,15.606677],[79.580814,15.606874],[79.580275,15.607003]]]},"properties":{"lp":"35"}},{"type":"Feature","geometry":{"type":"Polygon","coordinates":[[[79.57862,15.607053],[79.577269,15.607111],[79.577132,15.607031],[79.576913,15.607088],[79.576449,15.60715],[79.575797,15.60702],[79.575588,15.607122],[79.575612,15.607371],[79.575375,15.607338],[79.574987,15.607305],[79.574586,15.607261],[79.574659,15.607199],[79.575219,15.606846],[79.575588,15.606594],[79.576612,15.606634],[79.577009,15.606629],[79.578584,15.606644],[79.57862,15.607053]]]},"properties":{"lp":"36"}},{"type":"Feature","geometry":{"type":"Polygon","coordinates":[[[79.57862,15.607053],[79.578542,15.607313],[79.578398,15.607449],[79.577778,15.607579],[79.577556,15.607725],[79.577321,15.607814],[79.576705,15.607837],[79.576487,15.607612],[79.57609,15.607416],[79.575612,15.607371],[79.575588,15.607122],[79.575797,15.60702],[79.576449,15.60715],[79.576913,15.607088],[79.577132,15.607031],[79.577269,15.607111],[79.57862,15.607053]]]},"properties":{"lp":"37"}},{"type":"Feature","geometry":{"type":"Polygon","coordinates":[[[79.580275,15.607003],[79.580023,15.607168],[79.579503,15.607498],[79.579897,15.608135],[79.579943,15.608229],[79.579068,15.608311],[79.578026,15.608415],[79.577556,15.607725],[79.577778,15.607579],[79.578398,15.607449],[79.578542,15.607313],[79.57862,15.607053],[79.57926,15.607026],[79.579773,15.607002],[79.580275,15.607003]]]},"properties":{"lp":"38"}},{"type":"Feature","geometry":{"type":"Polygon","coordinates":[[[79.572288,15.609127],[79.571943,15.609467],[79.570865,15.610535],[79.570537,15.61086],[79.570508,15.610865],[79.570212,15.610555],[79.569869,15.610219],[79.570071,15.610082],[79.571635,15.609093],[79.57183,15.608144],[79.571879,15.607915],[79.572035,15.608368],[79.572206,15.608898],[79.572288,15.609127]]]},"properties":{"lp":"64"}},{"type":"Feature","geometry":{"type":"Polygon","coordinates":[[[79.570747,15.607351],[79.570755,15.608079],[79.570603,15.608054],[79.57024,15.608003],[79.569741,15.607924],[79.569047,15.60747],[79.570355,15.607033],[79.570747,15.607351]]]},"properties":{"lp":"70"}},{"type":"Feature","geometry":{"type":"Polygon","coordinates":[[[79.569035,15.605716],[79.569462,15.60614],[79.569764,15.606428],[79.570355,15.607033],[79.569047,15.60747],[79.568225,15.606722],[79.567818,15.606367],[79.56779,15.605943],[79.567774,15.605702],[79.567762,15.605529],[79.567744,15.605255],[79.569035,15.605716]]]},"properties":{"lp":"72"}},{"type":"Feature","geometry":{"type":"Polygon","coordinates":[[[79.566391,15.611706],[79.565645,15.612589],[79.564542,15.613637],[79.563672,15.614481],[79.562746,15.614902],[79.563078,15.614112],[79.564119,15.613484],[79.564484,15.613265],[79.564506,15.612782],[79.564558,15.612617],[79.564778,15.612045],[79.565648,15.61135],[79.565593,15.611072],[79.565076,15.609656],[79.565514,15.608997],[79.566824,15.608398],[79.566907,15.608109],[79.5674,15.607854],[79.567565,15.606854],[79.567603,15.606782],[79.567818,15.606367],[79.568225,15.606722],[79.569047,15.60747],[79.569741,15.607924],[79.57024,15.608003],[79.570603,15.608054],[79.570755,15.608079],[79.570747,15.607351],[79.571011,15.607243],[79.571854,15.606892],[79.571862,15.607573],[79.571879,15.607915],[79.57183,15.608144],[79.571635,15.609093],[79.570071,15.610082],[79.569869,15.610219],[79.568437,15.610515],[79.567566,15.610303],[79.566391,15.611706]]]},"properties":{"lp":"69"}},{"type":"Feature","geometry":{"type":"Polygon","coordinates":[[[79.57877,15.603698],[79.578957,15.604704],[79.577782,15.604813],[79.577341,15.603038],[79.577618,15.602999],[79.578199,15.602991],[79.578639,15.602948],[79.57877,15.603698]]]},"properties":{"lp":"26"}},{"type":"Feature","geometry":{"type":"Polygon","coordinates":[[[79.580999,15.603747],[79.58104,15.603943],[79.580181,15.604137],[79.580249,15.604764],[79.579791,15.604815],[79.579723,15.604862],[79.579597,15.605009],[79.579042,15.604955],[79.578957,15.604704],[79.57877,15.603698],[79.578639,15.602948],[79.579887,15.602912],[79.580544,15.602909],[79.581211,15.602887],[79.580999,15.603747]]]},"properties":{"lp":"25"}},{"type":"Feature","geometry":{"type":"Polygon","coordinates":[[[79.583167,15.604108],[79.582515,15.604363],[79.582196,15.604254],[79.582014,15.603561],[79.580999,15.603747],[79.581211,15.602887],[79.581401,15.60289],[79.582255,15.602832],[79.582904,15.602878],[79.583167,15.604108]]]},"properties":{"lp":"23"}},{"type":"Feature","geometry":{"type":"Polygon","coordinates":[[[79.584175,15.602921],[79.584305,15.603563],[79.583864,15.603776],[79.583167,15.604108],[79.582904,15.602878],[79.583525,15.602867],[79.584175,15.602921]]]},"properties":{"lp":"22"}},{"type":"Feature","geometry":{"type":"Polygon","coordinates":[[[79.582047,15.604581],[79.581715,15.604714],[79.581215,15.605153],[79.581053,15.605542],[79.580687,15.605107],[79.580341,15.605129],[79.580249,15.604764],[79.580181,15.604137],[79.58104,15.603943],[79.580999,15.603747],[79.582014,15.603561],[79.582196,15.604254],[79.582515,15.604363],[79.582047,15.604581]]]},"properties":{"lp":"24"}},{"type":"Feature","geometry":{"type":"Polygon","coordinates":[[[79.581554,15.605428],[79.581522,15.605469],[79.581344,15.605875],[79.581216,15.606135],[79.581076,15.606116],[79.58091,15.606091],[79.580822,15.60608],[79.581053,15.605542],[79.581215,15.605153],[79.581715,15.604714],[79.582047,15.604581],[79.582079,15.604692],[79.58213,15.604869],[79.581867,15.605004],[79.581554,15.605428]]]},"properties":{"lp":"75"}},{"type":"Feature","geometry":{"type":"Polygon","coordinates":[[[79.583559,15.60565],[79.58327,15.606096],[79.582268,15.606133],[79.581051,15.606424],[79.581216,15.606135],[79.581344,15.605875],[79.581522,15.605469],[79.581554,15.605428],[79.581857,15.605426],[79.582345,15.605355],[79.58284,15.605421],[79.58317,15.605481],[79.583488,15.605416],[79.583559,15.60565]]]},"properties":{"lp":"18"}},{"type":"Feature","geometry":{"type":"Polygon","coordinates":[[[79.58091,15.606091],[79.581076,15.606116],[79.581216,15.606135],[79.581051,15.606424],[79.581043,15.606498],[79.581039,15.606526],[79.58106,15.60664],[79.581093,15.606824],[79.581077,15.606975],[79.58104,15.607342],[79.581015,15.60794],[79.580868,15.608004],[79.580757,15.608052],[79.58075,15.607924],[79.580772,15.607508],[79.580814,15.606874],[79.580821,15.606677],[79.580822,15.606669],[79.58084,15.606411],[79.580831,15.606253],[79.580822,15.60608],[79.58091,15.606091]]]},"properties":{"lp":"76"}},{"type":"Feature","geometry":{"type":"Polygon","coordinates":[[[79.581204,15.607049],[79.581128,15.607396],[79.581168,15.607589],[79.581193,15.607727],[79.581231,15.607833],[79.581015,15.60794],[79.58104,15.607342],[79.581077,15.606975],[79.581204,15.607049]]]},"properties":{"lp":"7"}},{"type":"Feature","geometry":{"type":"Polygon","coordinates":[[[79.581204,15.607049],[79.581504,15.60697],[79.582121,15.606963],[79.582404,15.607467],[79.58239,15.60762],[79.581725,15.607762],[79.58163,15.60779],[79.581231,15.607833],[79.581193,15.607727],[79.581168,15.607589],[79.581128,15.607396],[79.581204,15.607049]]]},"properties":{"lp":"9"}},{"type":"Feature","geometry":{"type":"Polygon","coordinates":[[[79.576515,15.608496],[79.576169,15.608504],[79.576076,15.607956],[79.575562,15.607821],[79.575504,15.607919],[79.574857,15.607935],[79.574809,15.607797],[79.574586,15.607261],[79.574987,15.607305],[79.575375,15.607338],[79.575612,15.607371],[79.57609,15.607416],[79.576487,15.607612],[79.576705,15.607837],[79.577321,15.607814],[79.577556,15.607725],[79.578026,15.608415],[79.577228,15.60845],[79.576894,15.608471],[79.576515,15.608496]]]},"properties":{"lp":"39"}},{"type":"Feature","geometry":{"type":"Polygon","coordinates":[[[79.578991,15.608874],[79.577893,15.609081],[79.578011,15.608554],[79.578026,15.608415],[79.579068,15.608311],[79.579943,15.608229],[79.579897,15.608135],[79.579503,15.607498],[79.580023,15.607168],[79.580275,15.607003],[79.580814,15.606874],[79.580772,15.607508],[79.58075,15.607924],[79.580757,15.608052],[79.579478,15.60863],[79.578991,15.608874]]]},"properties":{"lp":"86"}},{"type":"Feature","geometry":{"type":"Polygon","coordinates":[[[79.580418,15.609581],[79.57972,15.610692],[79.579714,15.610704],[79.579585,15.610645],[79.57951,15.609885],[79.579437,15.609166],[79.579048,15.609184],[79.578991,15.608874],[79.579478,15.60863],[79.580757,15.608052],[79.580742,15.608198],[79.580685,15.608465],[79.580545,15.609032],[79.580418,15.609581]]]},"properties":{"lp":"85"}},{"type":"Feature","geometry":{"type":"Polygon","coordinates":[[[79.579585,15.610645],[79.579304,15.610771],[79.57848,15.610863],[79.57761,15.610944],[79.577537,15.610194],[79.57785,15.610158],[79.577951,15.609791],[79.577893,15.609081],[79.578991,15.608874],[79.579048,15.609184],[79.579437,15.609166],[79.57951,15.609885],[79.579585,15.610645]]]},"properties":{"lp":"6"}},{"type":"Feature","geometry":{"type":"Polygon","coordinates":[[[79.578812,15.612263],[79.577911,15.61246],[79.577702,15.61183],[79.577659,15.611321],[79.57761,15.610944],[79.57848,15.610863],[79.579304,15.610771],[79.579585,15.610645],[79.579714,15.610704],[79.57944,15.611171],[79.579401,15.611211],[79.578812,15.612263]]]},"properties":{"lp":"84"}},{"type":"Feature","geometry":{"type":"Polygon","coordinates":[[[79.578499,15.612794],[79.578061,15.613555],[79.578029,15.613262],[79.577911,15.61246],[79.578812,15.612263],[79.578499,15.612794]]]},"properties":{"lp":"83"}},{"type":"Feature","geometry":{"type":"Polygon","coordinates":[[[79.577275,15.613795],[79.576111,15.61401],[79.576038,15.613616],[79.575786,15.612268],[79.576882,15.612125],[79.577702,15.61183],[79.577911,15.61246],[79.578029,15.613262],[79.578061,15.613555],[79.577275,15.613795]]]},"properties":{"lp":"48"}},{"type":"Feature","geometry":{"type":"Polygon","coordinates":[[[79.575786,15.612268],[79.574979,15.612349],[79.574384,15.612422],[79.574553,15.611735],[79.574924,15.611617],[79.575076,15.611574],[79.575373,15.611466],[79.576035,15.611251],[79.576545,15.61115],[79.576876,15.61108],[79.577554,15.61097],[79.57761,15.610944],[79.577659,15.611321],[79.577702,15.61183],[79.576882,15.612125],[79.575786,15.612268]]]},"properties":{"lp":"47"}},{"type":"Feature","geometry":{"type":"Polygon","coordinates":[[[79.574862,15.613903],[79.574013,15.614098],[79.573925,15.613613],[79.574049,15.613397],[79.574309,15.612961],[79.574384,15.612422],[79.574979,15.612349],[79.575786,15.612268],[79.576038,15.613616],[79.574862,15.613903]]]},"properties":{"lp":"49"}},{"type":"Feature","geometry":{"type":"Polygon","coordinates":[[[79.576515,15.608496],[79.576574,15.608863],[79.576522,15.609069],[79.576147,15.609313],[79.57529,15.609381],[79.575242,15.609089],[79.575248,15.608712],[79.575075,15.608338],[79.575172,15.608152],[79.575504,15.607919],[79.575562,15.607821],[79.576076,15.607956],[79.576169,15.608504],[79.576515,15.608496]]]},"properties":{"lp":"40"}},{"type":"Feature","geometry":{"type":"Polygon","coordinates":[[[79.57761,15.610944],[79.577554,15.61097],[79.576876,15.61108],[79.576545,15.61115],[79.576035,15.611251],[79.575373,15.611466],[79.575076,15.611574],[79.574924,15.611617],[79.574903,15.611247],[79.574885,15.610961],[79.574853,15.610317],[79.574843,15.610254],[79.574904,15.609942],[79.574756,15.609129],[79.574833,15.608188],[79.57484,15.608002],[79.574857,15.607935],[79.575504,15.607919],[79.575172,15.608152],[79.575075,15.608338],[79.575248,15.608712],[79.575242,15.609089],[79.57529,15.609381],[79.576147,15.609313],[79.576522,15.609069],[79.576574,15.608863],[79.576515,15.608496],[79.576894,15.608471],[79.577228,15.60845],[79.578026,15.608415],[79.578011,15.608554],[79.577893,15.609081],[79.577951,15.609791],[79.57785,15.610158],[79.577537,15.610194],[79.57761,15.610944]]]},"properties":{"lp":"41"}},{"type":"Feature","geometry":{"type":"Polygon","coordinates":[[[79.574756,15.609129],[79.574446,15.609172],[79.5736,15.609285],[79.572869,15.609539],[79.572966,15.610215],[79.572293,15.610326],[79.572287,15.609932],[79.572288,15.609127],[79.573096,15.608389],[79.573296,15.608327],[79.574857,15.607935],[79.57484,15.608002],[79.574833,15.608188],[79.574756,15.609129]]]},"properties":{"lp":"43"}},{"type":"Feature","geometry":{"type":"Polygon","coordinates":[[[79.574553,15.611735],[79.573874,15.611877],[79.573904,15.61052],[79.574371,15.610334],[79.574843,15.610254],[79.574853,15.610317],[79.574885,15.610961],[79.574903,15.611247],[79.574924,15.611617],[79.574553,15.611735]]]},"properties":{"lp":"45"}},{"type":"Feature","geometry":{"type":"Polygon","coordinates":[[[79.574013,15.614098],[79.57321,15.614239],[79.573129,15.613775],[79.572881,15.613817],[79.572776,15.613235],[79.573203,15.613124],[79.573045,15.612348],[79.573417,15.612002],[79.573874,15.611877],[79.574553,15.611735],[79.574384,15.612422],[79.574309,15.612961],[79.574049,15.613397],[79.573925,15.613613],[79.574013,15.614098]]]},"properties":{"lp":"46"}},{"type":"Feature","geometry":{"type":"Polygon","coordinates":[[[79.572377,15.614358],[79.572086,15.614409],[79.572013,15.614076],[79.571825,15.612987],[79.572116,15.612957],[79.572165,15.612702],[79.572492,15.612554],[79.573045,15.612348],[79.573203,15.613124],[79.572776,15.613235],[79.572881,15.613817],[79.573129,15.613775],[79.57321,15.614239],[79.572377,15.614358]]]},"properties":{"lp":"53"}},{"type":"Feature","geometry":{"type":"Polygon","coordinates":[[[79.57261,15.615759],[79.572868,15.617006],[79.572534,15.617046],[79.571804,15.617069],[79.571734,15.616717],[79.571553,15.615816],[79.571515,15.615141],[79.570732,15.615221],[79.57081,15.614837],[79.570893,15.614525],[79.571038,15.614187],[79.572013,15.614076],[79.572086,15.614409],[79.572377,15.614358],[79.57261,15.615759]]]},"properties":{"lp":"55"}},{"type":"Feature","geometry":{"type":"Polygon","coordinates":[[[79.571553,15.615816],[79.571734,15.616717],[79.571804,15.617069],[79.570882,15.617189],[79.570299,15.617298],[79.569677,15.617475],[79.569294,15.616494],[79.570011,15.616371],[79.570221,15.616072],[79.570434,15.615751],[79.570802,15.615653],[79.570732,15.615221],[79.571515,15.615141],[79.571553,15.615816]]]},"properties":{"lp":"56"}},{"type":"Feature","geometry":{"type":"Polygon","coordinates":[[[79.570221,15.616072],[79.570011,15.616371],[79.569294,15.616494],[79.569677,15.617475],[79.569222,15.617613],[79.568935,15.616161],[79.569896,15.615899],[79.570434,15.615751],[79.570221,15.616072]]]},"properties":{"lp":"57"}},{"type":"Feature","geometry":{"type":"Polygon","coordinates":[[[79.570732,15.615221],[79.570802,15.615653],[79.570434,15.615751],[79.569896,15.615899],[79.568935,15.616161],[79.569222,15.617613],[79.568981,15.617332],[79.567617,15.615776],[79.567075,15.615132],[79.568636,15.614924],[79.569641,15.615119],[79.570495,15.614987],[79.570834,15.614182],[79.571038,15.614187],[79.570893,15.614525],[79.57081,15.614837],[79.570732,15.615221]]]},"properties":{"lp":"58"}},{"type":"Feature","geometry":{"type":"Polygon","coordinates":[[[79.572013,15.614076],[79.571038,15.614187],[79.570834,15.614182],[79.571233,15.613191],[79.571368,15.612547],[79.571679,15.612212],[79.572127,15.612246],[79.572164,15.612607],[79.572165,15.612702],[79.572116,15.612957],[79.571825,15.612987],[79.572013,15.614076]]]},"properties":{"lp":"54"}},{"type":"Feature","geometry":{"type":"Polygon","coordinates":[[[79.567075,15.615132],[79.566887,15.614291],[79.566635,15.613239],[79.56738,15.613099],[79.567967,15.612998],[79.568027,15.61241],[79.568461,15.612366],[79.568839,15.612354],[79.569216,15.612441],[79.56985,15.612368],[79.570027,15.612632],[79.57089,15.612572],[79.571368,15.612547],[79.571233,15.613191],[79.570834,15.614182],[79.570495,15.614987],[79.569641,15.615119],[79.568636,15.614924],[79.567075,15.615132]]]},"properties":{"lp":"62"}},{"type":"Feature","geometry":{"type":"Polygon","coordinates":[[[79.573045,15.612348],[79.572492,15.612554],[79.572165,15.612702],[79.572164,15.612607],[79.572127,15.612246],[79.571679,15.612212],[79.572202,15.610584],[79.572293,15.610326],[79.572966,15.610215],[79.572869,15.609539],[79.5736,15.609285],[79.574446,15.609172],[79.574756,15.609129],[79.574904,15.609942],[79.574843,15.610254],[79.574371,15.610334],[79.573904,15.61052],[79.573874,15.611877],[79.573417,15.612002],[79.573045,15.612348]]]},"properties":{"lp":"44"}},{"type":"Feature","geometry":{"type":"Polygon","coordinates":[[[79.568461,15.612366],[79.568027,15.61241],[79.567967,15.612998],[79.56738,15.613099],[79.566635,15.613239],[79.565832,15.612865],[79.566709,15.612061],[79.567815,15.611026],[79.56918,15.610957],[79.570193,15.610897],[79.570508,15.610865],[79.570537,15.61086],[79.570865,15.610535],[79.571943,15.609467],[79.572288,15.609127],[79.572287,15.609932],[79.572293,15.610326],[79.572202,15.610584],[79.571679,15.612212],[79.571368,15.612547],[79.57089,15.612572],[79.570027,15.612632],[79.56985,15.612368],[79.569216,15.612441],[79.568839,15.612354],[79.568461,15.612366]]]},"properties":{"lp":"63"}},{"type":"Feature","geometry":{"type":"Polygon","coordinates":[[[79.566635,15.613239],[79.566887,15.614291],[79.567075,15.615132],[79.567617,15.615776],[79.568981,15.617332],[79.569222,15.617613],[79.568119,15.61791],[79.566894,15.618228],[79.565597,15.619257],[79.565048,15.619657],[79.564359,15.619872],[79.564517,15.620452],[79.564163,15.621143],[79.563439,15.62151],[79.563316,15.621533],[79.563079,15.620739],[79.562498,15.619199],[79.562187,15.618484],[79.561861,15.617505],[79.561565,15.617499],[79.561613,15.6172],[79.561664,15.61689],[79.561887,15.616453],[79.56234,15.615564],[79.562669,15.615404],[79.563544,15.614927],[79.563976,15.614716],[79.564954,15.613725],[79.565832,15.612865],[79.566635,15.613239]]]},"properties":{"lp":"59"}},{"type":"Feature","geometry":{"type":"Polygon","coordinates":[[[79.562498,15.619199],[79.563079,15.620739],[79.562362,15.620936],[79.56164,15.619888],[79.560881,15.619825],[79.560702,15.619596],[79.560672,15.619404],[79.560535,15.618962],[79.561622,15.618642],[79.562187,15.618484],[79.562498,15.619199]]]},"properties":{"lp":"60"}},{"type":"Feature","geometry":{"type":"Polygon","coordinates":[[[79.561861,15.617505],[79.562187,15.618484],[79.561622,15.618642],[79.560535,15.618962],[79.560264,15.618772],[79.560523,15.61805],[79.560851,15.617692],[79.561565,15.617499],[79.561861,15.617505]]]},"properties":{"lp":"61"}},{"type":"Feature","geometry":{"type":"Polygon","coordinates":[[[79.563976,15.614716],[79.563544,15.614927],[79.562669,15.615404],[79.56234,15.615564],[79.561887,15.616453],[79.561664,15.61689],[79.561372,15.616843],[79.561193,15.616814],[79.561129,15.616739],[79.561084,15.616687],[79.561042,15.616637],[79.561368,15.616414],[79.561468,15.616231],[79.561654,15.615891],[79.562065,15.615392],[79.562746,15.614902],[79.563672,15.614481],[79.563976,15.614716]]]},"properties":{"lp":"68"}},{"type":"Feature","geometry":{"type":"Polygon","coordinates":[[[79.565832,15.612865],[79.564954,15.613725],[79.563976,15.614716],[79.563672,15.614481],[79.564542,15.613637],[79.565645,15.612589],[79.565832,15.612865]]]},"properties":{"lp":"67"}},{"type":"Feature","geometry":{"type":"Polygon","coordinates":[[[79.567815,15.611026],[79.566709,15.612061],[79.565832,15.612865],[79.565645,15.612589],[79.566391,15.611706],[79.567566,15.610303],[79.567815,15.611026]]]},"properties":{"lp":"66"}},{"type":"Feature","geometry":{"type":"Polygon","coordinates":[[[79.570508,15.610865],[79.570193,15.610897],[79.56918,15.610957],[79.567815,15.611026],[79.567566,15.610303],[79.568437,15.610515],[79.569869,15.610219],[79.570212,15.610555],[79.570508,15.610865]]]},"properties":{"lp":"65"}}]}